; generated by PrusaSlicer 2.7.4+linux on 2026-01-14 at 09:12:33 UTC
;
; total layers count = 30
M73 P0 R12
M201 X4000 Y4000 Z200 E2500
M204 P4000 R1200 T4000
M862.3 P "MK4" ; printer model check
M115 U2.0.0
G90
M83
M140 S60
M190 S60
M104 S215
M109 S215
G28 ; home
G92 E0
M107
G1 Z0.200 F720
G1 X5.000 Y20.000 F3000
G1 X5.000 Y180.000 E5.58770 F1200
G1 X5.400 Y180.000 E0.01397 F1200
G1 X5.400 Y20.000 E5.58770 F1200
;LAYER_CHANGE
;Z:0.20
;HEIGHT:0.20
G1 Z0.200 F720
M107
;TYPE:Skirt
G1 E-0.80000 F2400
G1 Z0.600 F9000
G1 X51.000 Y56.000 F9000
G1 Z0.200 F9000
G1 E0.80000 F2400
G1 X184.000 Y56.000 E4.64478 F1500
G1 X184.000 Y114.000 E2.02554 F1500
G1 X51.000 Y114.000 E4.64478 F1500
G1 X51.000 Y56.000 E2.02554 F1500
G1 E-0.80000 F2400
G1 Z0.600 F9000
G1 X55.000 Y60.000 F9000
G1 Z0.200 F9000
G1 E0.80000 F2400
;TYPE:External perimeter
G1 X105.000 Y60.000 E1.74616 F1500
G1 X105.000 Y110.000 E1.74616 F1500
G1 X55.000 Y110.000 E1.74616 F1500
G1 X55.000 Y60.000 E1.74616 F1500
;TYPE:Solid infill
G1 X56.000 Y61.000 F9000
G1 X104.000 Y61.000 E1.67631 F1500
G1 X104.000 Y67.000 E0.20954 F1500
G1 X56.000 Y67.000 E1.67631 F1500
G1 X56.000 Y73.000 E0.20954 F1500
G1 X104.000 Y73.000 E1.67631 F1500
G1 X104.000 Y79.000 E0.20954 F1500
G1 X56.000 Y79.000 E1.67631 F1500
G1 X56.000 Y85.000 E0.20954 F1500
G1 X104.000 Y85.000 E1.67631 F1500
G1 X104.000 Y91.000 E0.20954 F1500
G1 X56.000 Y91.000 E1.67631 F1500
G1 X56.000 Y97.000 E0.20954 F1500
G1 X104.000 Y97.000 E1.67631 F1500
G1 X104.000 Y103.000 E0.20954 F1500
G1 X56.000 Y103.000 E1.67631 F1500
G1 X56.000 Y109.000 E0.20954 F1500
G1 E-0.80000 F2400
G1 Z0.600 F9000
G1 X130.000 Y60.000 F9000
G1 Z0.200 F9000
G1 E0.80000 F2400
;TYPE:External perimeter
G1 X180.000 Y60.000 E1.74616 F1500
G1 X180.000 Y110.000 E1.74616 F1500
G1 X130.000 Y110.000 E1.74616 F1500
G1 X130.000 Y60.000 E1.74616 F1500
;TYPE:Solid infill
G1 X131.000 Y61.000 F9000
G1 X179.000 Y61.000 E1.67631 F1500
G1 X179.000 Y67.000 E0.20954 F1500
G1 X131.000 Y67.000 E1.67631 F1500
G1 X131.000 Y73.000 E0.20954 F1500
G1 X179.000 Y73.000 E1.67631 F1500
G1 X179.000 Y79.000 E0.20954 F1500
G1 X131.000 Y79.000 E1.67631 F1500
G1 X131.000 Y85.000 E0.20954 F1500
G1 X179.000 Y85.000 E1.67631 F1500
G1 X179.000 Y91.000 E0.20954 F1500
G1 X131.000 Y91.000 E1.67631 F1500
G1 X131.000 Y97.000 E0.20954 F1500
G1 X179.000 Y97.000 E1.67631 F1500
G1 X179.000 Y103.000 E0.20954 F1500
G1 X131.000 Y103.000 E1.67631 F1500
G1 X131.000 Y109.000 E0.20954 F1500
;LAYER_CHANGE
;Z:0.40
;HEIGHT:0.20
G1 Z0.400 F720
M106 S255
G1 E-0.80000 F2400
G1 Z0.800 F9000
G1 X55.000 Y60.000 F9000
G1 Z0.400 F9000
G1 E0.80000 F2400
;TYPE:External perimeter
G1 X105.000 Y60.000 E1.74616 F3600
G1 X105.000 Y110.000 E1.74616 F3600
G1 X55.000 Y110.000 E1.74616 F3600
G1 X55.000 Y60.000 E1.74616 F3600
;TYPE:Solid infill
G1 X56.000 Y61.000 F9000
G1 X104.000 Y61.000 E1.67631 F3600
G1 X104.000 Y67.000 E0.20954 F3600
G1 X56.000 Y67.000 E1.67631 F3600
G1 X56.000 Y73.000 E0.20954 F3600
G1 X104.000 Y73.000 E1.67631 F3600
G1 X104.000 Y79.000 E0.20954 F3600
G1 X56.000 Y79.000 E1.67631 F3600
G1 X56.000 Y85.000 E0.20954 F3600
G1 X104.000 Y85.000 E1.67631 F3600
G1 X104.000 Y91.000 E0.20954 F3600
G1 X56.000 Y91.000 E1.67631 F3600
G1 X56.000 Y97.000 E0.20954 F3600
G1 X104.000 Y97.000 E1.67631 F3600
G1 X104.000 Y103.000 E0.20954 F3600
G1 X56.000 Y103.000 E1.67631 F3600
G1 X56.000 Y109.000 E0.20954 F3600
G1 E-0.80000 F2400
G1 Z0.800 F9000
G1 X130.000 Y60.000 F9000
G1 Z0.400 F9000
G1 E0.80000 F2400
;TYPE:External perimeter
G1 X180.000 Y60.000 E1.74616 F3600
G1 X180.000 Y110.000 E1.74616 F3600
G1 X130.000 Y110.000 E1.74616 F3600
G1 X130.000 Y60.000 E1.74616 F3600
;TYPE:Solid infill
G1 X131.000 Y61.000 F9000
G1 X179.000 Y61.000 E1.67631 F3600
G1 X179.000 Y67.000 E0.20954 F3600
G1 X131.000 Y67.000 E1.67631 F3600
G1 X131.000 Y73.000 E0.20954 F3600
G1 X179.000 Y73.000 E1.67631 F3600
G1 X179.000 Y79.000 E0.20954 F3600
G1 X131.000 Y79.000 E1.67631 F3600
G1 X131.000 Y85.000 E0.20954 F3600
G1 X179.000 Y85.000 E1.67631 F3600
G1 X179.000 Y91.000 E0.20954 F3600
G1 X131.000 Y91.000 E1.67631 F3600
G1 X131.000 Y97.000 E0.20954 F3600
G1 X179.000 Y97.000 E1.67631 F3600
G1 X179.000 Y103.000 E0.20954 F3600
G1 X131.000 Y103.000 E1.67631 F3600
G1 X131.000 Y109.000 E0.20954 F3600
;LAYER_CHANGE
;Z:0.60
;HEIGHT:0.20
G1 Z0.600 F720
G1 E-0.80000 F2400
G1 Z1.000 F9000
G1 X55.000 Y60.000 F9000
G1 Z0.600 F9000
G1 E0.80000 F2400
;TYPE:External perimeter
G1 X105.000 Y60.000 E1.74616 F3600
G1 X105.000 Y110.000 E1.74616 F3600
G1 X55.000 Y110.000 E1.74616 F3600
G1 X55.000 Y60.000 E1.74616 F3600
;TYPE:Solid infill
G1 X56.000 Y61.000 F9000
G1 X104.000 Y61.000 E1.67631 F3600
G1 X104.000 Y67.000 E0.20954 F3600
G1 X56.000 Y67.000 E1.67631 F3600
G1 X56.000 Y73.000 E0.20954 F3600
G1 X104.000 Y73.000 E1.67631 F3600
G1 X104.000 Y79.000 E0.20954 F3600
G1 X56.000 Y79.000 E1.67631 F3600
G1 X56.000 Y85.000 E0.20954 F3600
G1 X104.000 Y85.000 E1.67631 F3600
G1 X104.000 Y91.000 E0.20954 F3600
G1 X56.000 Y91.000 E1.67631 F3600
G1 X56.000 Y97.000 E0.20954 F3600
G1 X104.000 Y97.000 E1.67631 F3600
G1 X104.000 Y103.000 E0.20954 F3600
G1 X56.000 Y103.000 E1.67631 F3600
G1 X56.000 Y109.000 E0.20954 F3600
G1 E-0.80000 F2400
G1 Z1.000 F9000
G1 X130.000 Y60.000 F9000
G1 Z0.600 F9000
G1 E0.80000 F2400
;TYPE:External perimeter
G1 X180.000 Y60.000 E1.74616 F3600
G1 X180.000 Y110.000 E1.74616 F3600
G1 X130.000 Y110.000 E1.74616 F3600
G1 X130.000 Y60.000 E1.74616 F3600
;TYPE:Solid infill
G1 X131.000 Y61.000 F9000
G1 X179.000 Y61.000 E1.67631 F3600
G1 X179.000 Y67.000 E0.20954 F3600
G1 X131.000 Y67.000 E1.67631 F3600
G1 X131.000 Y73.000 E0.20954 F3600
G1 X179.000 Y73.000 E1.67631 F3600
G1 X179.000 Y79.000 E0.20954 F3600
G1 X131.000 Y79.000 E1.67631 F3600
G1 X131.000 Y85.000 E0.20954 F3600
G1 X179.000 Y85.000 E1.67631 F3600
G1 X179.000 Y91.000 E0.20954 F3600
G1 X131.000 Y91.000 E1.67631 F3600
G1 X131.000 Y97.000 E0.20954 F3600
G1 X179.000 Y97.000 E1.67631 F3600
G1 X179.000 Y103.000 E0.20954 F3600
G1 X131.000 Y103.000 E1.67631 F3600
G1 X131.000 Y109.000 E0.20954 F3600
;LAYER_CHANGE
;Z:0.80
;HEIGHT:0.20
G1 Z0.800 F720
G1 E-0.80000 F2400
G1 Z1.200 F9000
G1 X55.000 Y60.000 F9000
G1 Z0.800 F9000
G1 E0.80000 F2400
;TYPE:External perimeter
G1 X105.000 Y60.000 E1.74616 F3600
G1 X105.000 Y110.000 E1.74616 F3600
G1 X55.000 Y110.000 E1.74616 F3600
G1 X55.000 Y60.000 E1.74616 F3600
;TYPE:Solid infill
G1 X56.000 Y61.000 F9000
G1 X104.000 Y61.000 E1.67631 F3600
G1 X104.000 Y67.000 E0.20954 F3600
G1 X56.000 Y67.000 E1.67631 F3600
G1 X56.000 Y73.000 E0.20954 F3600
G1 X104.000 Y73.000 E1.67631 F3600
G1 X104.000 Y79.000 E0.20954 F3600
G1 X56.000 Y79.000 E1.67631 F3600
G1 X56.000 Y85.000 E0.20954 F3600
G1 X104.000 Y85.000 E1.67631 F3600
G1 X104.000 Y91.000 E0.20954 F3600
G1 X56.000 Y91.000 E1.67631 F3600
G1 X56.000 Y97.000 E0.20954 F3600
G1 X104.000 Y97.000 E1.67631 F3600
G1 X104.000 Y103.000 E0.20954 F3600
G1 X56.000 Y103.000 E1.67631 F3600
G1 X56.000 Y109.000 E0.20954 F3600
G1 E-0.80000 F2400
G1 Z1.200 F9000
G1 X130.000 Y60.000 F9000
G1 Z0.800 F9000
G1 E0.80000 F2400
;TYPE:External perimeter
G1 X180.000 Y60.000 E1.74616 F3600
G1 X180.000 Y110.000 E1.74616 F3600
G1 X130.000 Y110.000 E1.74616 F3600
G1 X130.000 Y60.000 E1.74616 F3600
;TYPE:Solid infill
G1 X131.000 Y61.000 F9000
G1 X179.000 Y61.000 E1.67631 F3600
G1 X179.000 Y67.000 E0.20954 F3600
G1 X131.000 Y67.000 E1.67631 F3600
G1 X131.000 Y73.000 E0.20954 F3600
G1 X179.000 Y73.000 E1.67631 F3600
G1 X179.000 Y79.000 E0.20954 F3600
G1 X131.000 Y79.000 E1.67631 F3600
G1 X131.000 Y85.000 E0.20954 F3600
G1 X179.000 Y85.000 E1.67631 F3600
G1 X179.000 Y91.000 E0.20954 F3600
G1 X131.000 Y91.000 E1.67631 F3600
G1 X131.000 Y97.000 E0.20954 F3600
G1 X179.000 Y97.000 E1.67631 F3600
G1 X179.000 Y103.000 E0.20954 F3600
G1 X131.000 Y103.000 E1.67631 F3600
G1 X131.000 Y109.000 E0.20954 F3600
;LAYER_CHANGE
;Z:1.00
;HEIGHT:0.20
G1 Z1.000 F720
G1 E-0.80000 F2400
G1 Z1.400 F9000
G1 X55.000 Y60.000 F9000
G1 Z1.000 F9000
G1 E0.80000 F2400
;TYPE:External perimeter
G1 X105.000 Y60.000 E1.74616 F3600
G1 X105.000 Y110.000 E1.74616 F3600
G1 X55.000 Y110.000 E1.74616 F3600
G1 X55.000 Y60.000 E1.74616 F3600
;TYPE:Solid infill
G1 X56.000 Y61.000 F9000
G1 X104.000 Y61.000 E1.67631 F3600
G1 X104.000 Y67.000 E0.20954 F3600
G1 X56.000 Y67.000 E1.67631 F3600
G1 X56.000 Y73.000 E0.20954 F3600
G1 X104.000 Y73.000 E1.67631 F3600
G1 X104.000 Y79.000 E0.20954 F3600
G1 X56.000 Y79.000 E1.67631 F3600
G1 X56.000 Y85.000 E0.20954 F3600
G1 X104.000 Y85.000 E1.67631 F3600
G1 X104.000 Y91.000 E0.20954 F3600
G1 X56.000 Y91.000 E1.67631 F3600
G1 X56.000 Y97.000 E0.20954 F3600
G1 X104.000 Y97.000 E1.67631 F3600
G1 X104.000 Y103.000 E0.20954 F3600
G1 X56.000 Y103.000 E1.67631 F3600
G1 X56.000 Y109.000 E0.20954 F3600
G1 E-0.80000 F2400
G1 Z1.400 F9000
G1 X130.000 Y60.000 F9000
G1 Z1.000 F9000
G1 E0.80000 F2400
;TYPE:External perimeter
G1 X180.000 Y60.000 E1.74616 F3600
G1 X180.000 Y110.000 E1.74616 F3600
G1 X130.000 Y110.000 E1.74616 F3600
G1 X130.000 Y60.000 E1.74616 F3600
;TYPE:Solid infill
G1 X131.000 Y61.000 F9000
G1 X179.000 Y61.000 E1.67631 F3600
G1 X179.000 Y67.000 E0.20954 F3600
G1 X131.000 Y67.000 E1.67631 F3600
G1 X131.000 Y73.000 E0.20954 F3600
G1 X179.000 Y73.000 E1.67631 F3600
G1 X179.000 Y79.000 E0.20954 F3600
G1 X131.000 Y79.000 E1.67631 F3600
G1 X131.000 Y85.000 E0.20954 F3600
G1 X179.000 Y85.000 E1.67631 F3600
G1 X179.000 Y91.000 E0.20954 F3600
G1 X131.000 Y91.000 E1.67631 F3600
G1 X131.000 Y97.000 E0.20954 F3600
G1 X179.000 Y97.000 E1.67631 F3600
G1 X179.000 Y103.000 E0.20954 F3600
G1 X131.000 Y103.000 E1.67631 F3600
G1 X131.000 Y109.000 E0.20954 F3600
;LAYER_CHANGE
;Z:1.20
;HEIGHT:0.20
G1 Z1.200 F720
G1 E-0.80000 F2400
G1 Z1.600 F9000
G1 X55.000 Y60.000 F9000
G1 Z1.200 F9000
G1 E0.80000 F2400
;TYPE:External perimeter
G1 X105.000 Y60.000 E1.74616 F3600
G1 X105.000 Y110.000 E1.74616 F3600
G1 X55.000 Y110.000 E1.74616 F3600
G1 X55.000 Y60.000 E1.74616 F3600
;TYPE:Solid infill
G1 X56.000 Y61.000 F9000
G1 X104.000 Y61.000 E1.67631 F3600
G1 X104.000 Y67.000 E0.20954 F3600
G1 X56.000 Y67.000 E1.67631 F3600
G1 X56.000 Y73.000 E0.20954 F3600
G1 X104.000 Y73.000 E1.67631 F3600
G1 X104.000 Y79.000 E0.20954 F3600
G1 X56.000 Y79.000 E1.67631 F3600
G1 X56.000 Y85.000 E0.20954 F3600
G1 X104.000 Y85.000 E1.67631 F3600
G1 X104.000 Y91.000 E0.20954 F3600
G1 X56.000 Y91.000 E1.67631 F3600
G1 X56.000 Y97.000 E0.20954 F3600
G1 X104.000 Y97.000 E1.67631 F3600
G1 X104.000 Y103.000 E0.20954 F3600
G1 X56.000 Y103.000 E1.67631 F3600
G1 X56.000 Y109.000 E0.20954 F3600
G1 E-0.80000 F2400
G1 Z1.600 F9000
G1 X130.000 Y60.000 F9000
G1 Z1.200 F9000
G1 E0.80000 F2400
;TYPE:External perimeter
G1 X180.000 Y60.000 E1.74616 F3600
G1 X180.000 Y110.000 E1.74616 F3600
G1 X130.000 Y110.000 E1.74616 F3600
G1 X130.000 Y60.000 E1.74616 F3600
;TYPE:Solid infill
G1 X131.000 Y61.000 F9000
G1 X179.000 Y61.000 E1.67631 F3600
G1 X179.000 Y67.000 E0.20954 F3600
G1 X131.000 Y67.000 E1.67631 F3600
G1 X131.000 Y73.000 E0.20954 F3600
G1 X179.000 Y73.000 E1.67631 F3600
G1 X179.000 Y79.000 E0.20954 F3600
G1 X131.000 Y79.000 E1.67631 F3600
G1 X131.000 Y85.000 E0.20954 F3600
G1 X179.000 Y85.000 E1.67631 F3600
G1 X179.000 Y91.000 E0.20954 F3600
G1 X131.000 Y91.000 E1.67631 F3600
G1 X131.000 Y97.000 E0.20954 F3600
G1 X179.000 Y97.000 E1.67631 F3600
G1 X179.000 Y103.000 E0.20954 F3600
G1 X131.000 Y103.000 E1.67631 F3600
G1 X131.000 Y109.000 E0.20954 F3600
;LAYER_CHANGE
;Z:1.40
;HEIGHT:0.20
G1 Z1.400 F720
G1 E-0.80000 F2400
G1 Z1.800 F9000
G1 X55.000 Y60.000 F9000
G1 Z1.400 F9000
G1 E0.80000 F2400
;TYPE:External perimeter
G1 X105.000 Y60.000 E1.74616 F3600
G1 X105.000 Y110.000 E1.74616 F3600
G1 X55.000 Y110.000 E1.74616 F3600
G1 X55.000 Y60.000 E1.74616 F3600
;TYPE:Solid infill
G1 X56.000 Y61.000 F9000
G1 X104.000 Y61.000 E1.67631 F3600
G1 X104.000 Y67.000 E0.20954 F3600
G1 X56.000 Y67.000 E1.67631 F3600
G1 X56.000 Y73.000 E0.20954 F3600
G1 X104.000 Y73.000 E1.67631 F3600
G1 X104.000 Y79.000 E0.20954 F3600
G1 X56.000 Y79.000 E1.67631 F3600
G1 X56.000 Y85.000 E0.20954 F3600
G1 X104.000 Y85.000 E1.67631 F3600
G1 X104.000 Y91.000 E0.20954 F3600
G1 X56.000 Y91.000 E1.67631 F3600
G1 X56.000 Y97.000 E0.20954 F3600
G1 X104.000 Y97.000 E1.67631 F3600
G1 X104.000 Y103.000 E0.20954 F3600
G1 X56.000 Y103.000 E1.67631 F3600
G1 X56.000 Y109.000 E0.20954 F3600
G1 E-0.80000 F2400
G1 Z1.800 F9000
G1 X130.000 Y60.000 F9000
G1 Z1.400 F9000
G1 E0.80000 F2400
;TYPE:External perimeter
G1 X180.000 Y60.000 E1.74616 F3600
G1 X180.000 Y110.000 E1.74616 F3600
G1 X130.000 Y110.000 E1.74616 F3600
G1 X130.000 Y60.000 E1.74616 F3600
;TYPE:Solid infill
G1 X131.000 Y61.000 F9000
G1 X179.000 Y61.000 E1.67631 F3600
G1 X179.000 Y67.000 E0.20954 F3600
G1 X131.000 Y67.000 E1.67631 F3600
G1 X131.000 Y73.000 E0.20954 F3600
G1 X179.000 Y73.000 E1.67631 F3600
G1 X179.000 Y79.000 E0.20954 F3600
G1 X131.000 Y79.000 E1.67631 F3600
G1 X131.000 Y85.000 E0.20954 F3600
G1 X179.000 Y85.000 E1.67631 F3600
G1 X179.000 Y91.000 E0.20954 F3600
G1 X131.000 Y91.000 E1.67631 F3600
G1 X131.000 Y97.000 E0.20954 F3600
G1 X179.000 Y97.000 E1.67631 F3600
G1 X179.000 Y103.000 E0.20954 F3600
G1 X131.000 Y103.000 E1.67631 F3600
G1 X131.000 Y109.000 E0.20954 F3600
;LAYER_CHANGE
;Z:1.60
;HEIGHT:0.20
G1 Z1.600 F720
G1 E-0.80000 F2400
G1 Z2.000 F9000
G1 X55.000 Y60.000 F9000
G1 Z1.600 F9000
G1 E0.80000 F2400
;TYPE:External perimeter
G1 X105.000 Y60.000 E1.74616 F3600
G1 X105.000 Y110.000 E1.74616 F3600
G1 X55.000 Y110.000 E1.74616 F3600
G1 X55.000 Y60.000 E1.74616 F3600
;TYPE:Solid infill
G1 X56.000 Y61.000 F9000
G1 X104.000 Y61.000 E1.67631 F3600
G1 X104.000 Y67.000 E0.20954 F3600
G1 X56.000 Y67.000 E1.67631 F3600
G1 X56.000 Y73.000 E0.20954 F3600
G1 X104.000 Y73.000 E1.67631 F3600
G1 X104.000 Y79.000 E0.20954 F3600
G1 X56.000 Y79.000 E1.67631 F3600
G1 X56.000 Y85.000 E0.20954 F3600
G1 X104.000 Y85.000 E1.67631 F3600
G1 X104.000 Y91.000 E0.20954 F3600
G1 X56.000 Y91.000 E1.67631 F3600
G1 X56.000 Y97.000 E0.20954 F3600
G1 X104.000 Y97.000 E1.67631 F3600
G1 X104.000 Y103.000 E0.20954 F3600
G1 X56.000 Y103.000 E1.67631 F3600
G1 X56.000 Y109.000 E0.20954 F3600
G1 E-0.80000 F2400
G1 Z2.000 F9000
G1 X130.000 Y60.000 F9000
G1 Z1.600 F9000
G1 E0.80000 F2400
;TYPE:External perimeter
G1 X180.000 Y60.000 E1.74616 F3600
G1 X180.000 Y110.000 E1.74616 F3600
G1 X130.000 Y110.000 E1.74616 F3600
G1 X130.000 Y60.000 E1.74616 F3600
;TYPE:Solid infill
G1 X131.000 Y61.000 F9000
G1 X179.000 Y61.000 E1.67631 F3600
G1 X179.000 Y67.000 E0.20954 F3600
G1 X131.000 Y67.000 E1.67631 F3600
G1 X131.000 Y73.000 E0.20954 F3600
G1 X179.000 Y73.000 E1.67631 F3600
G1 X179.000 Y79.000 E0.20954 F3600
G1 X131.000 Y79.000 E1.67631 F3600
G1 X131.000 Y85.000 E0.20954 F3600
G1 X179.000 Y85.000 E1.67631 F3600
G1 X179.000 Y91.000 E0.20954 F3600
G1 X131.000 Y91.000 E1.67631 F3600
G1 X131.000 Y97.000 E0.20954 F3600
G1 X179.000 Y97.000 E1.67631 F3600
G1 X179.000 Y103.000 E0.20954 F3600
G1 X131.000 Y103.000 E1.67631 F3600
G1 X131.000 Y109.000 E0.20954 F3600
;LAYER_CHANGE
;Z:1.80
;HEIGHT:0.20
G1 Z1.800 F720
G1 E-0.80000 F2400
G1 Z2.200 F9000
G1 X55.000 Y60.000 F9000
G1 Z1.800 F9000
G1 E0.80000 F2400
;TYPE:External perimeter
G1 X105.000 Y60.000 E1.74616 F3600
G1 X105.000 Y110.000 E1.74616 F3600
G1 X55.000 Y110.000 E1.74616 F3600
G1 X55.000 Y60.000 E1.74616 F3600
;TYPE:Solid infill
G1 X56.000 Y61.000 F9000
G1 X104.000 Y61.000 E1.67631 F3600
G1 X104.000 Y67.000 E0.20954 F3600
G1 X56.000 Y67.000 E1.67631 F3600
G1 X56.000 Y73.000 E0.20954 F3600
G1 X104.000 Y73.000 E1.67631 F3600
G1 X104.000 Y79.000 E0.20954 F3600
G1 X56.000 Y79.000 E1.67631 F3600
G1 X56.000 Y85.000 E0.20954 F3600
G1 X104.000 Y85.000 E1.67631 F3600
G1 X104.000 Y91.000 E0.20954 F3600
G1 X56.000 Y91.000 E1.67631 F3600
G1 X56.000 Y97.000 E0.20954 F3600
G1 X104.000 Y97.000 E1.67631 F3600
G1 X104.000 Y103.000 E0.20954 F3600
G1 X56.000 Y103.000 E1.67631 F3600
G1 X56.000 Y109.000 E0.20954 F3600
G1 E-0.80000 F2400
G1 Z2.200 F9000
G1 X130.000 Y60.000 F9000
G1 Z1.800 F9000
G1 E0.80000 F2400
;TYPE:External perimeter
G1 X180.000 Y60.000 E1.74616 F3600
G1 X180.000 Y110.000 E1.74616 F3600
G1 X130.000 Y110.000 E1.74616 F3600
G1 X130.000 Y60.000 E1.74616 F3600
;TYPE:Solid infill
G1 X131.000 Y61.000 F9000
G1 X179.000 Y61.000 E1.67631 F3600
G1 X179.000 Y67.000 E0.20954 F3600
G1 X131.000 Y67.000 E1.67631 F3600
G1 X131.000 Y73.000 E0.20954 F3600
G1 X179.000 Y73.000 E1.67631 F3600
G1 X179.000 Y79.000 E0.20954 F3600
G1 X131.000 Y79.000 E1.67631 F3600
G1 X131.000 Y85.000 E0.20954 F3600
G1 X179.000 Y85.000 E1.67631 F3600
G1 X179.000 Y91.000 E0.20954 F3600
G1 X131.000 Y91.000 E1.67631 F3600
G1 X131.000 Y97.000 E0.20954 F3600
G1 X179.000 Y97.000 E1.67631 F3600
G1 X179.000 Y103.000 E0.20954 F3600
G1 X131.000 Y103.000 E1.67631 F3600
G1 X131.000 Y109.000 E0.20954 F3600
;LAYER_CHANGE
;Z:2.00
;HEIGHT:0.20
G1 Z2.000 F720
G1 E-0.80000 F2400
G1 Z2.400 F9000
G1 X55.000 Y60.000 F9000
G1 Z2.000 F9000
G1 E0.80000 F2400
;TYPE:External perimeter
G1 X105.000 Y60.000 E1.74616 F3600
G1 X105.000 Y110.000 E1.74616 F3600
G1 X55.000 Y110.000 E1.74616 F3600
G1 X55.000 Y60.000 E1.74616 F3600
;TYPE:Solid infill
G1 X56.000 Y61.000 F9000
G1 X104.000 Y61.000 E1.67631 F3600
G1 X104.000 Y67.000 E0.20954 F3600
G1 X56.000 Y67.000 E1.67631 F3600
G1 X56.000 Y73.000 E0.20954 F3600
G1 X104.000 Y73.000 E1.67631 F3600
G1 X104.000 Y79.000 E0.20954 F3600
G1 X56.000 Y79.000 E1.67631 F3600
G1 X56.000 Y85.000 E0.20954 F3600
G1 X104.000 Y85.000 E1.67631 F3600
G1 X104.000 Y91.000 E0.20954 F3600
G1 X56.000 Y91.000 E1.67631 F3600
G1 X56.000 Y97.000 E0.20954 F3600
G1 X104.000 Y97.000 E1.67631 F3600
G1 X104.000 Y103.000 E0.20954 F3600
G1 X56.000 Y103.000 E1.67631 F3600
G1 X56.000 Y109.000 E0.20954 F3600
G1 E-0.80000 F2400
G1 Z2.400 F9000
G1 X130.000 Y60.000 F9000
G1 Z2.000 F9000
G1 E0.80000 F2400
;TYPE:External perimeter
G1 X180.000 Y60.000 E1.74616 F3600
G1 X180.000 Y110.000 E1.74616 F3600
G1 X130.000 Y110.000 E1.74616 F3600
G1 X130.000 Y60.000 E1.74616 F3600
;TYPE:Solid infill
G1 X131.000 Y61.000 F9000
G1 X179.000 Y61.000 E1.67631 F3600
G1 X179.000 Y67.000 E0.20954 F3600
G1 X131.000 Y67.000 E1.67631 F3600
G1 X131.000 Y73.000 E0.20954 F3600
G1 X179.000 Y73.000 E1.67631 F3600
G1 X179.000 Y79.000 E0.20954 F3600
G1 X131.000 Y79.000 E1.67631 F3600
G1 X131.000 Y85.000 E0.20954 F3600
G1 X179.000 Y85.000 E1.67631 F3600
G1 X179.000 Y91.000 E0.20954 F3600
G1 X131.000 Y91.000 E1.67631 F3600
G1 X131.000 Y97.000 E0.20954 F3600
G1 X179.000 Y97.000 E1.67631 F3600
G1 X179.000 Y103.000 E0.20954 F3600
G1 X131.000 Y103.000 E1.67631 F3600
G1 X131.000 Y109.000 E0.20954 F3600
;LAYER_CHANGE
;Z:2.20
;HEIGHT:0.20
G1 Z2.200 F720
G1 E-0.80000 F2400
G1 Z2.600 F9000
G1 X55.000 Y60.000 F9000
G1 Z2.200 F9000
G1 E0.80000 F2400
;TYPE:External perimeter
G1 X105.000 Y60.000 E1.74616 F3600
G1 X105.000 Y110.000 E1.74616 F3600
G1 X55.000 Y110.000 E1.74616 F3600
G1 X55.000 Y60.000 E1.74616 F3600
;TYPE:Solid infill
G1 X56.000 Y61.000 F9000
G1 X104.000 Y61.000 E1.67631 F3600
G1 X104.000 Y67.000 E0.20954 F3600
G1 X56.000 Y67.000 E1.67631 F3600
G1 X56.000 Y73.000 E0.20954 F3600
G1 X104.000 Y73.000 E1.67631 F3600
G1 X104.000 Y79.000 E0.20954 F3600
G1 X56.000 Y79.000 E1.67631 F3600
G1 X56.000 Y85.000 E0.20954 F3600
G1 X104.000 Y85.000 E1.67631 F3600
G1 X104.000 Y91.000 E0.20954 F3600
G1 X56.000 Y91.000 E1.67631 F3600
G1 X56.000 Y97.000 E0.20954 F3600
G1 X104.000 Y97.000 E1.67631 F3600
G1 X104.000 Y103.000 E0.20954 F3600
G1 X56.000 Y103.000 E1.67631 F3600
G1 X56.000 Y109.000 E0.20954 F3600
G1 E-0.80000 F2400
G1 Z2.600 F9000
G1 X130.000 Y60.000 F9000
G1 Z2.200 F9000
G1 E0.80000 F2400
;TYPE:External perimeter
G1 X180.000 Y60.000 E1.74616 F3600
G1 X180.000 Y110.000 E1.74616 F3600
G1 X130.000 Y110.000 E1.74616 F3600
G1 X130.000 Y60.000 E1.74616 F3600
;TYPE:Solid infill
G1 X131.000 Y61.000 F9000
G1 X179.000 Y61.000 E1.67631 F3600
G1 X179.000 Y67.000 E0.20954 F3600
G1 X131.000 Y67.000 E1.67631 F3600
G1 X131.000 Y73.000 E0.20954 F3600
G1 X179.000 Y73.000 E1.67631 F3600
G1 X179.000 Y79.000 E0.20954 F3600
G1 X131.000 Y79.000 E1.67631 F3600
G1 X131.000 Y85.000 E0.20954 F3600
G1 X179.000 Y85.000 E1.67631 F3600
G1 X179.000 Y91.000 E0.20954 F3600
G1 X131.000 Y91.000 E1.67631 F3600
G1 X131.000 Y97.000 E0.20954 F3600
G1 X179.000 Y97.000 E1.67631 F3600
G1 X179.000 Y103.000 E0.20954 F3600
G1 X131.000 Y103.000 E1.67631 F3600
G1 X131.000 Y109.000 E0.20954 F3600
;LAYER_CHANGE
;Z:2.40
;HEIGHT:0.20
G1 Z2.400 F720
G1 E-0.80000 F2400
G1 Z2.800 F9000
G1 X55.000 Y60.000 F9000
G1 Z2.400 F9000
G1 E0.80000 F2400
;TYPE:External perimeter
G1 X105.000 Y60.000 E1.74616 F3600
G1 X105.000 Y110.000 E1.74616 F3600
G1 X55.000 Y110.000 E1.74616 F3600
G1 X55.000 Y60.000 E1.74616 F3600
;TYPE:Solid infill
G1 X56.000 Y61.000 F9000
G1 X104.000 Y61.000 E1.67631 F3600
G1 X104.000 Y67.000 E0.20954 F3600
G1 X56.000 Y67.000 E1.67631 F3600
G1 X56.000 Y73.000 E0.20954 F3600
G1 X104.000 Y73.000 E1.67631 F3600
G1 X104.000 Y79.000 E0.20954 F3600
G1 X56.000 Y79.000 E1.67631 F3600
G1 X56.000 Y85.000 E0.20954 F3600
G1 X104.000 Y85.000 E1.67631 F3600
G1 X104.000 Y91.000 E0.20954 F3600
G1 X56.000 Y91.000 E1.67631 F3600
G1 X56.000 Y97.000 E0.20954 F3600
G1 X104.000 Y97.000 E1.67631 F3600
G1 X104.000 Y103.000 E0.20954 F3600
G1 X56.000 Y103.000 E1.67631 F3600
G1 X56.000 Y109.000 E0.20954 F3600
G1 E-0.80000 F2400
G1 Z2.800 F9000
G1 X130.000 Y60.000 F9000
G1 Z2.400 F9000
G1 E0.80000 F2400
;TYPE:External perimeter
G1 X180.000 Y60.000 E1.74616 F3600
G1 X180.000 Y110.000 E1.74616 F3600
G1 X130.000 Y110.000 E1.74616 F3600
G1 X130.000 Y60.000 E1.74616 F3600
;TYPE:Solid infill
G1 X131.000 Y61.000 F9000
G1 X179.000 Y61.000 E1.67631 F3600
G1 X179.000 Y67.000 E0.20954 F3600
G1 X131.000 Y67.000 E1.67631 F3600
G1 X131.000 Y73.000 E0.20954 F3600
G1 X179.000 Y73.000 E1.67631 F3600
G1 X179.000 Y79.000 E0.20954 F3600
G1 X131.000 Y79.000 E1.67631 F3600
G1 X131.000 Y85.000 E0.20954 F3600
G1 X179.000 Y85.000 E1.67631 F3600
G1 X179.000 Y91.000 E0.20954 F3600
G1 X131.000 Y91.000 E1.67631 F3600
G1 X131.000 Y97.000 E0.20954 F3600
G1 X179.000 Y97.000 E1.67631 F3600
G1 X179.000 Y103.000 E0.20954 F3600
G1 X131.000 Y103.000 E1.67631 F3600
G1 X131.000 Y109.000 E0.20954 F3600
;LAYER_CHANGE
;Z:2.60
;HEIGHT:0.20
G1 Z2.600 F720
G1 E-0.80000 F2400
G1 Z3.000 F9000
G1 X55.000 Y60.000 F9000
G1 Z2.600 F9000
G1 E0.80000 F2400
;TYPE:External perimeter
G1 X105.000 Y60.000 E1.74616 F3600
G1 X105.000 Y110.000 E1.74616 F3600
G1 X55.000 Y110.000 E1.74616 F3600
G1 X55.000 Y60.000 E1.74616 F3600
;TYPE:Solid infill
G1 X56.000 Y61.000 F9000
G1 X104.000 Y61.000 E1.67631 F3600
G1 X104.000 Y67.000 E0.20954 F3600
G1 X56.000 Y67.000 E1.67631 F3600
G1 X56.000 Y73.000 E0.20954 F3600
G1 X104.000 Y73.000 E1.67631 F3600
G1 X104.000 Y79.000 E0.20954 F3600
G1 X56.000 Y79.000 E1.67631 F3600
G1 X56.000 Y85.000 E0.20954 F3600
G1 X104.000 Y85.000 E1.67631 F3600
G1 X104.000 Y91.000 E0.20954 F3600
G1 X56.000 Y91.000 E1.67631 F3600
G1 X56.000 Y97.000 E0.20954 F3600
G1 X104.000 Y97.000 E1.67631 F3600
G1 X104.000 Y103.000 E0.20954 F3600
G1 X56.000 Y103.000 E1.67631 F3600
G1 X56.000 Y109.000 E0.20954 F3600
G1 E-0.80000 F2400
G1 Z3.000 F9000
G1 X130.000 Y60.000 F9000
G1 Z2.600 F9000
G1 E0.80000 F2400
;TYPE:External perimeter
G1 X180.000 Y60.000 E1.74616 F3600
G1 X180.000 Y110.000 E1.74616 F3600
G1 X130.000 Y110.000 E1.74616 F3600
G1 X130.000 Y60.000 E1.74616 F3600
;TYPE:Solid infill
G1 X131.000 Y61.000 F9000
G1 X179.000 Y61.000 E1.67631 F3600
G1 X179.000 Y67.000 E0.20954 F3600
G1 X131.000 Y67.000 E1.67631 F3600
G1 X131.000 Y73.000 E0.20954 F3600
G1 X179.000 Y73.000 E1.67631 F3600
G1 X179.000 Y79.000 E0.20954 F3600
G1 X131.000 Y79.000 E1.67631 F3600
G1 X131.000 Y85.000 E0.20954 F3600
G1 X179.000 Y85.000 E1.67631 F3600
G1 X179.000 Y91.000 E0.20954 F3600
G1 X131.000 Y91.000 E1.67631 F3600
G1 X131.000 Y97.000 E0.20954 F3600
G1 X179.000 Y97.000 E1.67631 F3600
G1 X179.000 Y103.000 E0.20954 F3600
G1 X131.000 Y103.000 E1.67631 F3600
G1 X131.000 Y109.000 E0.20954 F3600
;LAYER_CHANGE
;Z:2.80
;HEIGHT:0.20
G1 Z2.800 F720
G1 E-0.80000 F2400
G1 Z3.200 F9000
G1 X55.000 Y60.000 F9000
G1 Z2.800 F9000
G1 E0.80000 F2400
;TYPE:External perimeter
G1 X105.000 Y60.000 E1.74616 F3600
G1 X105.000 Y110.000 E1.74616 F3600
G1 X55.000 Y110.000 E1.74616 F3600
G1 X55.000 Y60.000 E1.74616 F3600
;TYPE:Solid infill
G1 X56.000 Y61.000 F9000
G1 X104.000 Y61.000 E1.67631 F3600
G1 X104.000 Y67.000 E0.20954 F3600
G1 X56.000 Y67.000 E1.67631 F3600
G1 X56.000 Y73.000 E0.20954 F3600
G1 X104.000 Y73.000 E1.67631 F3600
G1 X104.000 Y79.000 E0.20954 F3600
G1 X56.000 Y79.000 E1.67631 F3600
G1 X56.000 Y85.000 E0.20954 F3600
G1 X104.000 Y85.000 E1.67631 F3600
G1 X104.000 Y91.000 E0.20954 F3600
G1 X56.000 Y91.000 E1.67631 F3600
G1 X56.000 Y97.000 E0.20954 F3600
G1 X104.000 Y97.000 E1.67631 F3600
G1 X104.000 Y103.000 E0.20954 F3600
G1 X56.000 Y103.000 E1.67631 F3600
G1 X56.000 Y109.000 E0.20954 F3600
G1 E-0.80000 F2400
G1 Z3.200 F9000
G1 X130.000 Y60.000 F9000
G1 Z2.800 F9000
G1 E0.80000 F2400
;TYPE:External perimeter
G1 X180.000 Y60.000 E1.74616 F3600
G1 X180.000 Y110.000 E1.74616 F3600
G1 X130.000 Y110.000 E1.74616 F3600
G1 X130.000 Y60.000 E1.74616 F3600
;TYPE:Solid infill
G1 X131.000 Y61.000 F9000
G1 X179.000 Y61.000 E1.67631 F3600
G1 X179.000 Y67.000 E0.20954 F3600
G1 X131.000 Y67.000 E1.67631 F3600
G1 X131.000 Y73.000 E0.20954 F3600
G1 X179.000 Y73.000 E1.67631 F3600
G1 X179.000 Y79.000 E0.20954 F3600
G1 X131.000 Y79.000 E1.67631 F3600
G1 X131.000 Y85.000 E0.20954 F3600
G1 X179.000 Y85.000 E1.67631 F3600
G1 X179.000 Y91.000 E0.20954 F3600
G1 X131.000 Y91.000 E1.67631 F3600
G1 X131.000 Y97.000 E0.20954 F3600
G1 X179.000 Y97.000 E1.67631 F3600
G1 X179.000 Y103.000 E0.20954 F3600
G1 X131.000 Y103.000 E1.67631 F3600
G1 X131.000 Y109.000 E0.20954 F3600
;LAYER_CHANGE
;Z:3.00
;HEIGHT:0.20
G1 Z3.000 F720
G1 E-0.80000 F2400
G1 Z3.400 F9000
G1 X55.000 Y60.000 F9000
G1 Z3.000 F9000
G1 E0.80000 F2400
;TYPE:External perimeter
G1 X105.000 Y60.000 E1.74616 F3600
G1 X105.000 Y110.000 E1.74616 F3600
G1 X55.000 Y110.000 E1.74616 F3600
G1 X55.000 Y60.000 E1.74616 F3600
;TYPE:Solid infill
G1 X56.000 Y61.000 F9000
G1 X104.000 Y61.000 E1.67631 F3600
G1 X104.000 Y67.000 E0.20954 F3600
G1 X56.000 Y67.000 E1.67631 F3600
G1 X56.000 Y73.000 E0.20954 F3600
G1 X104.000 Y73.000 E1.67631 F3600
G1 X104.000 Y79.000 E0.20954 F3600
G1 X56.000 Y79.000 E1.67631 F3600
G1 X56.000 Y85.000 E0.20954 F3600
G1 X104.000 Y85.000 E1.67631 F3600
G1 X104.000 Y91.000 E0.20954 F3600
G1 X56.000 Y91.000 E1.67631 F3600
G1 X56.000 Y97.000 E0.20954 F3600
G1 X104.000 Y97.000 E1.67631 F3600
G1 X104.000 Y103.000 E0.20954 F3600
G1 X56.000 Y103.000 E1.67631 F3600
G1 X56.000 Y109.000 E0.20954 F3600
G1 E-0.80000 F2400
G1 Z3.400 F9000
G1 X130.000 Y60.000 F9000
G1 Z3.000 F9000
G1 E0.80000 F2400
;TYPE:External perimeter
G1 X180.000 Y60.000 E1.74616 F3600
G1 X180.000 Y110.000 E1.74616 F3600
G1 X130.000 Y110.000 E1.74616 F3600
G1 X130.000 Y60.000 E1.74616 F3600
;TYPE:Solid infill
G1 X131.000 Y61.000 F9000
G1 X179.000 Y61.000 E1.67631 F3600
G1 X179.000 Y67.000 E0.20954 F3600
G1 X131.000 Y67.000 E1.67631 F3600
G1 X131.000 Y73.000 E0.20954 F3600
G1 X179.000 Y73.000 E1.67631 F3600
G1 X179.000 Y79.000 E0.20954 F3600
G1 X131.000 Y79.000 E1.67631 F3600
G1 X131.000 Y85.000 E0.20954 F3600
G1 X179.000 Y85.000 E1.67631 F3600
G1 X179.000 Y91.000 E0.20954 F3600
G1 X131.000 Y91.000 E1.67631 F3600
G1 X131.000 Y97.000 E0.20954 F3600
G1 X179.000 Y97.000 E1.67631 F3600
G1 X179.000 Y103.000 E0.20954 F3600
G1 X131.000 Y103.000 E1.67631 F3600
G1 X131.000 Y109.000 E0.20954 F3600
;LAYER_CHANGE
;Z:3.20
;HEIGHT:0.20
G1 Z3.200 F720
G1 E-0.80000 F2400
G1 Z3.600 F9000
G1 X55.000 Y60.000 F9000
G1 Z3.200 F9000
G1 E0.80000 F2400
;TYPE:External perimeter
G1 X105.000 Y60.000 E1.74616 F3600
G1 X105.000 Y110.000 E1.74616 F3600
G1 X55.000 Y110.000 E1.74616 F3600
G1 X55.000 Y60.000 E1.74616 F3600
;TYPE:Solid infill
G1 X56.000 Y61.000 F9000
G1 X104.000 Y61.000 E1.67631 F3600
G1 X104.000 Y67.000 E0.20954 F3600
G1 X56.000 Y67.000 E1.67631 F3600
G1 X56.000 Y73.000 E0.20954 F3600
G1 X104.000 Y73.000 E1.67631 F3600
G1 X104.000 Y79.000 E0.20954 F3600
G1 X56.000 Y79.000 E1.67631 F3600
G1 X56.000 Y85.000 E0.20954 F3600
G1 X104.000 Y85.000 E1.67631 F3600
G1 X104.000 Y91.000 E0.20954 F3600
G1 X56.000 Y91.000 E1.67631 F3600
G1 X56.000 Y97.000 E0.20954 F3600
G1 X104.000 Y97.000 E1.67631 F3600
G1 X104.000 Y103.000 E0.20954 F3600
G1 X56.000 Y103.000 E1.67631 F3600
G1 X56.000 Y109.000 E0.20954 F3600
G1 E-0.80000 F2400
G1 Z3.600 F9000
G1 X130.000 Y60.000 F9000
G1 Z3.200 F9000
G1 E0.80000 F2400
;TYPE:External perimeter
G1 X180.000 Y60.000 E1.74616 F3600
G1 X180.000 Y110.000 E1.74616 F3600
G1 X130.000 Y110.000 E1.74616 F3600
G1 X130.000 Y60.000 E1.74616 F3600
;TYPE:Solid infill
G1 X131.000 Y61.000 F9000
G1 X179.000 Y61.000 E1.67631 F3600
G1 X179.000 Y67.000 E0.20954 F3600
G1 X131.000 Y67.000 E1.67631 F3600
G1 X131.000 Y73.000 E0.20954 F3600
G1 X179.000 Y73.000 E1.67631 F3600
G1 X179.000 Y79.000 E0.20954 F3600
G1 X131.000 Y79.000 E1.67631 F3600
G1 X131.000 Y85.000 E0.20954 F3600
G1 X179.000 Y85.000 E1.67631 F3600
G1 X179.000 Y91.000 E0.20954 F3600
G1 X131.000 Y91.000 E1.67631 F3600
G1 X131.000 Y97.000 E0.20954 F3600
G1 X179.000 Y97.000 E1.67631 F3600
G1 X179.000 Y103.000 E0.20954 F3600
G1 X131.000 Y103.000 E1.67631 F3600
G1 X131.000 Y109.000 E0.20954 F3600
;LAYER_CHANGE
;Z:3.40
;HEIGHT:0.20
G1 Z3.400 F720
G1 E-0.80000 F2400
G1 Z3.800 F9000
G1 X55.000 Y60.000 F9000
G1 Z3.400 F9000
G1 E0.80000 F2400
;TYPE:External perimeter
G1 X105.000 Y60.000 E1.74616 F3600
G1 X105.000 Y110.000 E1.74616 F3600
G1 X55.000 Y110.000 E1.74616 F3600
G1 X55.000 Y60.000 E1.74616 F3600
;TYPE:Solid infill
G1 X56.000 Y61.000 F9000
G1 X104.000 Y61.000 E1.67631 F3600
G1 X104.000 Y67.000 E0.20954 F3600
G1 X56.000 Y67.000 E1.67631 F3600
G1 X56.000 Y73.000 E0.20954 F3600
G1 X104.000 Y73.000 E1.67631 F3600
G1 X104.000 Y79.000 E0.20954 F3600
G1 X56.000 Y79.000 E1.67631 F3600
G1 X56.000 Y85.000 E0.20954 F3600
G1 X104.000 Y85.000 E1.67631 F3600
G1 X104.000 Y91.000 E0.20954 F3600
G1 X56.000 Y91.000 E1.67631 F3600
G1 X56.000 Y97.000 E0.20954 F3600
G1 X104.000 Y97.000 E1.67631 F3600
G1 X104.000 Y103.000 E0.20954 F3600
G1 X56.000 Y103.000 E1.67631 F3600
G1 X56.000 Y109.000 E0.20954 F3600
G1 E-0.80000 F2400
G1 Z3.800 F9000
G1 X130.000 Y60.000 F9000
G1 Z3.400 F9000
G1 E0.80000 F2400
;TYPE:External perimeter
G1 X180.000 Y60.000 E1.74616 F3600
G1 X180.000 Y110.000 E1.74616 F3600
G1 X130.000 Y110.000 E1.74616 F3600
G1 X130.000 Y60.000 E1.74616 F3600
;TYPE:Solid infill
G1 X131.000 Y61.000 F9000
G1 X179.000 Y61.000 E1.67631 F3600
G1 X179.000 Y67.000 E0.20954 F3600
G1 X131.000 Y67.000 E1.67631 F3600
G1 X131.000 Y73.000 E0.20954 F3600
G1 X179.000 Y73.000 E1.67631 F3600
G1 X179.000 Y79.000 E0.20954 F3600
G1 X131.000 Y79.000 E1.67631 F3600
G1 X131.000 Y85.000 E0.20954 F3600
G1 X179.000 Y85.000 E1.67631 F3600
G1 X179.000 Y91.000 E0.20954 F3600
G1 X131.000 Y91.000 E1.67631 F3600
G1 X131.000 Y97.000 E0.20954 F3600
G1 X179.000 Y97.000 E1.67631 F3600
G1 X179.000 Y103.000 E0.20954 F3600
G1 X131.000 Y103.000 E1.67631 F3600
G1 X131.000 Y109.000 E0.20954 F3600
;LAYER_CHANGE
;Z:3.60
;HEIGHT:0.20
G1 Z3.600 F720
G1 E-0.80000 F2400
G1 Z4.000 F9000
G1 X55.000 Y60.000 F9000
G1 Z3.600 F9000
G1 E0.80000 F2400
;TYPE:External perimeter
G1 X105.000 Y60.000 E1.74616 F3600
G1 X105.000 Y110.000 E1.74616 F3600
G1 X55.000 Y110.000 E1.74616 F3600
G1 X55.000 Y60.000 E1.74616 F3600
;TYPE:Solid infill
G1 X56.000 Y61.000 F9000
G1 X104.000 Y61.000 E1.67631 F3600
G1 X104.000 Y67.000 E0.20954 F3600
G1 X56.000 Y67.000 E1.67631 F3600
G1 X56.000 Y73.000 E0.20954 F3600
G1 X104.000 Y73.000 E1.67631 F3600
G1 X104.000 Y79.000 E0.20954 F3600
G1 X56.000 Y79.000 E1.67631 F3600
G1 X56.000 Y85.000 E0.20954 F3600
G1 X104.000 Y85.000 E1.67631 F3600
G1 X104.000 Y91.000 E0.20954 F3600
G1 X56.000 Y91.000 E1.67631 F3600
G1 X56.000 Y97.000 E0.20954 F3600
G1 X104.000 Y97.000 E1.67631 F3600
G1 X104.000 Y103.000 E0.20954 F3600
G1 X56.000 Y103.000 E1.67631 F3600
G1 X56.000 Y109.000 E0.20954 F3600
G1 E-0.80000 F2400
G1 Z4.000 F9000
G1 X130.000 Y60.000 F9000
G1 Z3.600 F9000
G1 E0.80000 F2400
;TYPE:External perimeter
G1 X180.000 Y60.000 E1.74616 F3600
G1 X180.000 Y110.000 E1.74616 F3600
G1 X130.000 Y110.000 E1.74616 F3600
G1 X130.000 Y60.000 E1.74616 F3600
;TYPE:Solid infill
G1 X131.000 Y61.000 F9000
G1 X179.000 Y61.000 E1.67631 F3600
G1 X179.000 Y67.000 E0.20954 F3600
G1 X131.000 Y67.000 E1.67631 F3600
G1 X131.000 Y73.000 E0.20954 F3600
G1 X179.000 Y73.000 E1.67631 F3600
G1 X179.000 Y79.000 E0.20954 F3600
G1 X131.000 Y79.000 E1.67631 F3600
G1 X131.000 Y85.000 E0.20954 F3600
G1 X179.000 Y85.000 E1.67631 F3600
G1 X179.000 Y91.000 E0.20954 F3600
G1 X131.000 Y91.000 E1.67631 F3600
G1 X131.000 Y97.000 E0.20954 F3600
G1 X179.000 Y97.000 E1.67631 F3600
G1 X179.000 Y103.000 E0.20954 F3600
G1 X131.000 Y103.000 E1.67631 F3600
G1 X131.000 Y109.000 E0.20954 F3600
;LAYER_CHANGE
;Z:3.80
;HEIGHT:0.20
G1 Z3.800 F720
G1 E-0.80000 F2400
G1 Z4.200 F9000
G1 X55.000 Y60.000 F9000
G1 Z3.800 F9000
G1 E0.80000 F2400
;TYPE:External perimeter
G1 X105.000 Y60.000 E1.74616 F3600
G1 X105.000 Y110.000 E1.74616 F3600
G1 X55.000 Y110.000 E1.74616 F3600
G1 X55.000 Y60.000 E1.74616 F3600
;TYPE:Solid infill
G1 X56.000 Y61.000 F9000
G1 X104.000 Y61.000 E1.67631 F3600
G1 X104.000 Y67.000 E0.20954 F3600
G1 X56.000 Y67.000 E1.67631 F3600
G1 X56.000 Y73.000 E0.20954 F3600
G1 X104.000 Y73.000 E1.67631 F3600
G1 X104.000 Y79.000 E0.20954 F3600
G1 X56.000 Y79.000 E1.67631 F3600
G1 X56.000 Y85.000 E0.20954 F3600
G1 X104.000 Y85.000 E1.67631 F3600
G1 X104.000 Y91.000 E0.20954 F3600
G1 X56.000 Y91.000 E1.67631 F3600
G1 X56.000 Y97.000 E0.20954 F3600
G1 X104.000 Y97.000 E1.67631 F3600
G1 X104.000 Y103.000 E0.20954 F3600
G1 X56.000 Y103.000 E1.67631 F3600
G1 X56.000 Y109.000 E0.20954 F3600
G1 E-0.80000 F2400
G1 Z4.200 F9000
G1 X130.000 Y60.000 F9000
G1 Z3.800 F9000
G1 E0.80000 F2400
;TYPE:External perimeter
G1 X180.000 Y60.000 E1.74616 F3600
G1 X180.000 Y110.000 E1.74616 F3600
G1 X130.000 Y110.000 E1.74616 F3600
G1 X130.000 Y60.000 E1.74616 F3600
;TYPE:Solid infill
G1 X131.000 Y61.000 F9000
G1 X179.000 Y61.000 E1.67631 F3600
G1 X179.000 Y67.000 E0.20954 F3600
G1 X131.000 Y67.000 E1.67631 F3600
G1 X131.000 Y73.000 E0.20954 F3600
G1 X179.000 Y73.000 E1.67631 F3600
G1 X179.000 Y79.000 E0.20954 F3600
G1 X131.000 Y79.000 E1.67631 F3600
G1 X131.000 Y85.000 E0.20954 F3600
G1 X179.000 Y85.000 E1.67631 F3600
G1 X179.000 Y91.000 E0.20954 F3600
G1 X131.000 Y91.000 E1.67631 F3600
G1 X131.000 Y97.000 E0.20954 F3600
G1 X179.000 Y97.000 E1.67631 F3600
G1 X179.000 Y103.000 E0.20954 F3600
G1 X131.000 Y103.000 E1.67631 F3600
G1 X131.000 Y109.000 E0.20954 F3600
;LAYER_CHANGE
;Z:4.00
;HEIGHT:0.20
G1 Z4.000 F720
G1 E-0.80000 F2400
G1 Z4.400 F9000
G1 X55.000 Y60.000 F9000
G1 Z4.000 F9000
G1 E0.80000 F2400
;TYPE:External perimeter
G1 X105.000 Y60.000 E1.74616 F3600
G1 X105.000 Y110.000 E1.74616 F3600
G1 X55.000 Y110.000 E1.74616 F3600
G1 X55.000 Y60.000 E1.74616 F3600
;TYPE:Solid infill
G1 X56.000 Y61.000 F9000
G1 X104.000 Y61.000 E1.67631 F3600
G1 X104.000 Y67.000 E0.20954 F3600
G1 X56.000 Y67.000 E1.67631 F3600
G1 X56.000 Y73.000 E0.20954 F3600
G1 X104.000 Y73.000 E1.67631 F3600
G1 X104.000 Y79.000 E0.20954 F3600
G1 X56.000 Y79.000 E1.67631 F3600
G1 X56.000 Y85.000 E0.20954 F3600
G1 X104.000 Y85.000 E1.67631 F3600
G1 X104.000 Y91.000 E0.20954 F3600
G1 X56.000 Y91.000 E1.67631 F3600
G1 X56.000 Y97.000 E0.20954 F3600
G1 X104.000 Y97.000 E1.67631 F3600
G1 X104.000 Y103.000 E0.20954 F3600
G1 X56.000 Y103.000 E1.67631 F3600
G1 X56.000 Y109.000 E0.20954 F3600
G1 E-0.80000 F2400
G1 Z4.400 F9000
G1 X130.000 Y60.000 F9000
G1 Z4.000 F9000
G1 E0.80000 F2400
;TYPE:External perimeter
G1 X180.000 Y60.000 E1.74616 F3600
G1 X180.000 Y110.000 E1.74616 F3600
G1 X130.000 Y110.000 E1.74616 F3600
G1 X130.000 Y60.000 E1.74616 F3600
;TYPE:Solid infill
G1 X131.000 Y61.000 F9000
G1 X179.000 Y61.000 E1.67631 F3600
G1 X179.000 Y67.000 E0.20954 F3600
G1 X131.000 Y67.000 E1.67631 F3600
G1 X131.000 Y73.000 E0.20954 F3600
G1 X179.000 Y73.000 E1.67631 F3600
G1 X179.000 Y79.000 E0.20954 F3600
G1 X131.000 Y79.000 E1.67631 F3600
G1 X131.000 Y85.000 E0.20954 F3600
G1 X179.000 Y85.000 E1.67631 F3600
G1 X179.000 Y91.000 E0.20954 F3600
G1 X131.000 Y91.000 E1.67631 F3600
G1 X131.000 Y97.000 E0.20954 F3600
G1 X179.000 Y97.000 E1.67631 F3600
G1 X179.000 Y103.000 E0.20954 F3600
G1 X131.000 Y103.000 E1.67631 F3600
G1 X131.000 Y109.000 E0.20954 F3600
;LAYER_CHANGE
;Z:4.20
;HEIGHT:0.20
G1 Z4.200 F720
G1 E-0.80000 F2400
G1 Z4.600 F9000
G1 X55.000 Y60.000 F9000
G1 Z4.200 F9000
G1 E0.80000 F2400
;TYPE:External perimeter
G1 X105.000 Y60.000 E1.74616 F3600
G1 X105.000 Y110.000 E1.74616 F3600
G1 X55.000 Y110.000 E1.74616 F3600
G1 X55.000 Y60.000 E1.74616 F3600
;TYPE:Solid infill
G1 X56.000 Y61.000 F9000
G1 X104.000 Y61.000 E1.67631 F3600
G1 X104.000 Y67.000 E0.20954 F3600
G1 X56.000 Y67.000 E1.67631 F3600
G1 X56.000 Y73.000 E0.20954 F3600
G1 X104.000 Y73.000 E1.67631 F3600
G1 X104.000 Y79.000 E0.20954 F3600
G1 X56.000 Y79.000 E1.67631 F3600
G1 X56.000 Y85.000 E0.20954 F3600
G1 X104.000 Y85.000 E1.67631 F3600
G1 X104.000 Y91.000 E0.20954 F3600
G1 X56.000 Y91.000 E1.67631 F3600
G1 X56.000 Y97.000 E0.20954 F3600
G1 X104.000 Y97.000 E1.67631 F3600
G1 X104.000 Y103.000 E0.20954 F3600
G1 X56.000 Y103.000 E1.67631 F3600
G1 X56.000 Y109.000 E0.20954 F3600
G1 E-0.80000 F2400
G1 Z4.600 F9000
G1 X130.000 Y60.000 F9000
G1 Z4.200 F9000
G1 E0.80000 F2400
;TYPE:External perimeter
G1 X180.000 Y60.000 E1.74616 F3600
G1 X180.000 Y110.000 E1.74616 F3600
G1 X130.000 Y110.000 E1.74616 F3600
G1 X130.000 Y60.000 E1.74616 F3600
;TYPE:Solid infill
G1 X131.000 Y61.000 F9000
G1 X179.000 Y61.000 E1.67631 F3600
G1 X179.000 Y67.000 E0.20954 F3600
G1 X131.000 Y67.000 E1.67631 F3600
G1 X131.000 Y73.000 E0.20954 F3600
G1 X179.000 Y73.000 E1.67631 F3600
G1 X179.000 Y79.000 E0.20954 F3600
G1 X131.000 Y79.000 E1.67631 F3600
G1 X131.000 Y85.000 E0.20954 F3600
G1 X179.000 Y85.000 E1.67631 F3600
G1 X179.000 Y91.000 E0.20954 F3600
G1 X131.000 Y91.000 E1.67631 F3600
G1 X131.000 Y97.000 E0.20954 F3600
G1 X179.000 Y97.000 E1.67631 F3600
G1 X179.000 Y103.000 E0.20954 F3600
G1 X131.000 Y103.000 E1.67631 F3600
G1 X131.000 Y109.000 E0.20954 F3600
;LAYER_CHANGE
;Z:4.40
;HEIGHT:0.20
G1 Z4.400 F720
G1 E-0.80000 F2400
G1 Z4.800 F9000
G1 X55.000 Y60.000 F9000
G1 Z4.400 F9000
G1 E0.80000 F2400
;TYPE:External perimeter
G1 X105.000 Y60.000 E1.74616 F3600
G1 X105.000 Y110.000 E1.74616 F3600
G1 X55.000 Y110.000 E1.74616 F3600
G1 X55.000 Y60.000 E1.74616 F3600
;TYPE:Solid infill
G1 X56.000 Y61.000 F9000
G1 X104.000 Y61.000 E1.67631 F3600
G1 X104.000 Y67.000 E0.20954 F3600
G1 X56.000 Y67.000 E1.67631 F3600
G1 X56.000 Y73.000 E0.20954 F3600
G1 X104.000 Y73.000 E1.67631 F3600
G1 X104.000 Y79.000 E0.20954 F3600
G1 X56.000 Y79.000 E1.67631 F3600
G1 X56.000 Y85.000 E0.20954 F3600
G1 X104.000 Y85.000 E1.67631 F3600
G1 X104.000 Y91.000 E0.20954 F3600
G1 X56.000 Y91.000 E1.67631 F3600
G1 X56.000 Y97.000 E0.20954 F3600
G1 X104.000 Y97.000 E1.67631 F3600
G1 X104.000 Y103.000 E0.20954 F3600
G1 X56.000 Y103.000 E1.67631 F3600
G1 X56.000 Y109.000 E0.20954 F3600
G1 E-0.80000 F2400
G1 Z4.800 F9000
G1 X130.000 Y60.000 F9000
G1 Z4.400 F9000
G1 E0.80000 F2400
;TYPE:External perimeter
G1 X180.000 Y60.000 E1.74616 F3600
G1 X180.000 Y110.000 E1.74616 F3600
G1 X130.000 Y110.000 E1.74616 F3600
G1 X130.000 Y60.000 E1.74616 F3600
;TYPE:Solid infill
G1 X131.000 Y61.000 F9000
G1 X179.000 Y61.000 E1.67631 F3600
G1 X179.000 Y67.000 E0.20954 F3600
G1 X131.000 Y67.000 E1.67631 F3600
G1 X131.000 Y73.000 E0.20954 F3600
G1 X179.000 Y73.000 E1.67631 F3600
G1 X179.000 Y79.000 E0.20954 F3600
G1 X131.000 Y79.000 E1.67631 F3600
G1 X131.000 Y85.000 E0.20954 F3600
G1 X179.000 Y85.000 E1.67631 F3600
G1 X179.000 Y91.000 E0.20954 F3600
G1 X131.000 Y91.000 E1.67631 F3600
G1 X131.000 Y97.000 E0.20954 F3600
G1 X179.000 Y97.000 E1.67631 F3600
G1 X179.000 Y103.000 E0.20954 F3600
G1 X131.000 Y103.000 E1.67631 F3600
G1 X131.000 Y109.000 E0.20954 F3600
;LAYER_CHANGE
;Z:4.60
;HEIGHT:0.20
G1 Z4.600 F720
G1 E-0.80000 F2400
G1 Z5.000 F9000
G1 X55.000 Y60.000 F9000
G1 Z4.600 F9000
G1 E0.80000 F2400
;TYPE:External perimeter
G1 X105.000 Y60.000 E1.74616 F3600
G1 X105.000 Y110.000 E1.74616 F3600
G1 X55.000 Y110.000 E1.74616 F3600
G1 X55.000 Y60.000 E1.74616 F3600
;TYPE:Solid infill
G1 X56.000 Y61.000 F9000
G1 X104.000 Y61.000 E1.67631 F3600
G1 X104.000 Y67.000 E0.20954 F3600
G1 X56.000 Y67.000 E1.67631 F3600
G1 X56.000 Y73.000 E0.20954 F3600
G1 X104.000 Y73.000 E1.67631 F3600
G1 X104.000 Y79.000 E0.20954 F3600
G1 X56.000 Y79.000 E1.67631 F3600
G1 X56.000 Y85.000 E0.20954 F3600
G1 X104.000 Y85.000 E1.67631 F3600
G1 X104.000 Y91.000 E0.20954 F3600
G1 X56.000 Y91.000 E1.67631 F3600
G1 X56.000 Y97.000 E0.20954 F3600
G1 X104.000 Y97.000 E1.67631 F3600
G1 X104.000 Y103.000 E0.20954 F3600
G1 X56.000 Y103.000 E1.67631 F3600
G1 X56.000 Y109.000 E0.20954 F3600
G1 E-0.80000 F2400
G1 Z5.000 F9000
G1 X130.000 Y60.000 F9000
G1 Z4.600 F9000
G1 E0.80000 F2400
;TYPE:External perimeter
G1 X180.000 Y60.000 E1.74616 F3600
G1 X180.000 Y110.000 E1.74616 F3600
G1 X130.000 Y110.000 E1.74616 F3600
G1 X130.000 Y60.000 E1.74616 F3600
;TYPE:Solid infill
G1 X131.000 Y61.000 F9000
G1 X179.000 Y61.000 E1.67631 F3600
G1 X179.000 Y67.000 E0.20954 F3600
G1 X131.000 Y67.000 E1.67631 F3600
G1 X131.000 Y73.000 E0.20954 F3600
G1 X179.000 Y73.000 E1.67631 F3600
G1 X179.000 Y79.000 E0.20954 F3600
G1 X131.000 Y79.000 E1.67631 F3600
G1 X131.000 Y85.000 E0.20954 F3600
G1 X179.000 Y85.000 E1.67631 F3600
G1 X179.000 Y91.000 E0.20954 F3600
G1 X131.000 Y91.000 E1.67631 F3600
G1 X131.000 Y97.000 E0.20954 F3600
G1 X179.000 Y97.000 E1.67631 F3600
G1 X179.000 Y103.000 E0.20954 F3600
G1 X131.000 Y103.000 E1.67631 F3600
G1 X131.000 Y109.000 E0.20954 F3600
;LAYER_CHANGE
;Z:4.80
;HEIGHT:0.20
G1 Z4.800 F720
G1 E-0.80000 F2400
G1 Z5.200 F9000
G1 X55.000 Y60.000 F9000
G1 Z4.800 F9000
G1 E0.80000 F2400
;TYPE:External perimeter
G1 X105.000 Y60.000 E1.74616 F3600
G1 X105.000 Y110.000 E1.74616 F3600
G1 X55.000 Y110.000 E1.74616 F3600
G1 X55.000 Y60.000 E1.74616 F3600
;TYPE:Solid infill
G1 X56.000 Y61.000 F9000
G1 X104.000 Y61.000 E1.67631 F3600
G1 X104.000 Y67.000 E0.20954 F3600
G1 X56.000 Y67.000 E1.67631 F3600
G1 X56.000 Y73.000 E0.20954 F3600
G1 X104.000 Y73.000 E1.67631 F3600
G1 X104.000 Y79.000 E0.20954 F3600
G1 X56.000 Y79.000 E1.67631 F3600
G1 X56.000 Y85.000 E0.20954 F3600
G1 X104.000 Y85.000 E1.67631 F3600
G1 X104.000 Y91.000 E0.20954 F3600
G1 X56.000 Y91.000 E1.67631 F3600
G1 X56.000 Y97.000 E0.20954 F3600
G1 X104.000 Y97.000 E1.67631 F3600
G1 X104.000 Y103.000 E0.20954 F3600
G1 X56.000 Y103.000 E1.67631 F3600
G1 X56.000 Y109.000 E0.20954 F3600
G1 E-0.80000 F2400
G1 Z5.200 F9000
G1 X130.000 Y60.000 F9000
G1 Z4.800 F9000
G1 E0.80000 F2400
;TYPE:External perimeter
G1 X180.000 Y60.000 E1.74616 F3600
G1 X180.000 Y110.000 E1.74616 F3600
G1 X130.000 Y110.000 E1.74616 F3600
G1 X130.000 Y60.000 E1.74616 F3600
;TYPE:Solid infill
G1 X131.000 Y61.000 F9000
G1 X179.000 Y61.000 E1.67631 F3600
G1 X179.000 Y67.000 E0.20954 F3600
G1 X131.000 Y67.000 E1.67631 F3600
G1 X131.000 Y73.000 E0.20954 F3600
G1 X179.000 Y73.000 E1.67631 F3600
G1 X179.000 Y79.000 E0.20954 F3600
G1 X131.000 Y79.000 E1.67631 F3600
G1 X131.000 Y85.000 E0.20954 F3600
G1 X179.000 Y85.000 E1.67631 F3600
G1 X179.000 Y91.000 E0.20954 F3600
G1 X131.000 Y91.000 E1.67631 F3600
G1 X131.000 Y97.000 E0.20954 F3600
G1 X179.000 Y97.000 E1.67631 F3600
G1 X179.000 Y103.000 E0.20954 F3600
G1 X131.000 Y103.000 E1.67631 F3600
G1 X131.000 Y109.000 E0.20954 F3600
;LAYER_CHANGE
;Z:5.00
;HEIGHT:0.20
G1 Z5.000 F720
G1 E-0.80000 F2400
G1 Z5.400 F9000
G1 X55.000 Y60.000 F9000
G1 Z5.000 F9000
G1 E0.80000 F2400
;TYPE:External perimeter
G1 X105.000 Y60.000 E1.74616 F3600
G1 X105.000 Y110.000 E1.74616 F3600
G1 X55.000 Y110.000 E1.74616 F3600
G1 X55.000 Y60.000 E1.74616 F3600
;TYPE:Solid infill
G1 X56.000 Y61.000 F9000
G1 X104.000 Y61.000 E1.67631 F3600
G1 X104.000 Y67.000 E0.20954 F3600
G1 X56.000 Y67.000 E1.67631 F3600
G1 X56.000 Y73.000 E0.20954 F3600
G1 X104.000 Y73.000 E1.67631 F3600
G1 X104.000 Y79.000 E0.20954 F3600
G1 X56.000 Y79.000 E1.67631 F3600
G1 X56.000 Y85.000 E0.20954 F3600
G1 X104.000 Y85.000 E1.67631 F3600
G1 X104.000 Y91.000 E0.20954 F3600
G1 X56.000 Y91.000 E1.67631 F3600
G1 X56.000 Y97.000 E0.20954 F3600
G1 X104.000 Y97.000 E1.67631 F3600
G1 X104.000 Y103.000 E0.20954 F3600
G1 X56.000 Y103.000 E1.67631 F3600
G1 X56.000 Y109.000 E0.20954 F3600
G1 E-0.80000 F2400
G1 Z5.400 F9000
G1 X130.000 Y60.000 F9000
G1 Z5.000 F9000
G1 E0.80000 F2400
;TYPE:External perimeter
G1 X180.000 Y60.000 E1.74616 F3600
G1 X180.000 Y110.000 E1.74616 F3600
G1 X130.000 Y110.000 E1.74616 F3600
G1 X130.000 Y60.000 E1.74616 F3600
;TYPE:Solid infill
G1 X131.000 Y61.000 F9000
G1 X179.000 Y61.000 E1.67631 F3600
G1 X179.000 Y67.000 E0.20954 F3600
G1 X131.000 Y67.000 E1.67631 F3600
G1 X131.000 Y73.000 E0.20954 F3600
G1 X179.000 Y73.000 E1.67631 F3600
G1 X179.000 Y79.000 E0.20954 F3600
G1 X131.000 Y79.000 E1.67631 F3600
G1 X131.000 Y85.000 E0.20954 F3600
G1 X179.000 Y85.000 E1.67631 F3600
G1 X179.000 Y91.000 E0.20954 F3600
G1 X131.000 Y91.000 E1.67631 F3600
G1 X131.000 Y97.000 E0.20954 F3600
G1 X179.000 Y97.000 E1.67631 F3600
G1 X179.000 Y103.000 E0.20954 F3600
G1 X131.000 Y103.000 E1.67631 F3600
G1 X131.000 Y109.000 E0.20954 F3600
;LAYER_CHANGE
;Z:5.20
;HEIGHT:0.20
G1 Z5.200 F720
G1 E-0.80000 F2400
G1 Z5.600 F9000
G1 X55.000 Y60.000 F9000
G1 Z5.200 F9000
G1 E0.80000 F2400
;TYPE:External perimeter
G1 X105.000 Y60.000 E1.74616 F3600
G1 X105.000 Y110.000 E1.74616 F3600
G1 X55.000 Y110.000 E1.74616 F3600
G1 X55.000 Y60.000 E1.74616 F3600
;TYPE:Solid infill
G1 X56.000 Y61.000 F9000
G1 X104.000 Y61.000 E1.67631 F3600
G1 X104.000 Y67.000 E0.20954 F3600
G1 X56.000 Y67.000 E1.67631 F3600
G1 X56.000 Y73.000 E0.20954 F3600
G1 X104.000 Y73.000 E1.67631 F3600
G1 X104.000 Y79.000 E0.20954 F3600
G1 X56.000 Y79.000 E1.67631 F3600
G1 X56.000 Y85.000 E0.20954 F3600
G1 X104.000 Y85.000 E1.67631 F3600
G1 X104.000 Y91.000 E0.20954 F3600
G1 X56.000 Y91.000 E1.67631 F3600
G1 X56.000 Y97.000 E0.20954 F3600
G1 X104.000 Y97.000 E1.67631 F3600
G1 X104.000 Y103.000 E0.20954 F3600
G1 X56.000 Y103.000 E1.67631 F3600
G1 X56.000 Y109.000 E0.20954 F3600
G1 E-0.80000 F2400
G1 Z5.600 F9000
G1 X130.000 Y60.000 F9000
G1 Z5.200 F9000
G1 E0.80000 F2400
;TYPE:External perimeter
G1 X180.000 Y60.000 E1.74616 F3600
G1 X180.000 Y110.000 E1.74616 F3600
G1 X130.000 Y110.000 E1.74616 F3600
G1 X130.000 Y60.000 E1.74616 F3600
;TYPE:Solid infill
G1 X131.000 Y61.000 F9000
G1 X179.000 Y61.000 E1.67631 F3600
G1 X179.000 Y67.000 E0.20954 F3600
G1 X131.000 Y67.000 E1.67631 F3600
G1 X131.000 Y73.000 E0.20954 F3600
G1 X179.000 Y73.000 E1.67631 F3600
G1 X179.000 Y79.000 E0.20954 F3600
G1 X131.000 Y79.000 E1.67631 F3600
G1 X131.000 Y85.000 E0.20954 F3600
G1 X179.000 Y85.000 E1.67631 F3600
G1 X179.000 Y91.000 E0.20954 F3600
G1 X131.000 Y91.000 E1.67631 F3600
G1 X131.000 Y97.000 E0.20954 F3600
G1 X179.000 Y97.000 E1.67631 F3600
G1 X179.000 Y103.000 E0.20954 F3600
G1 X131.000 Y103.000 E1.67631 F3600
G1 X131.000 Y109.000 E0.20954 F3600
;LAYER_CHANGE
;Z:5.40
;HEIGHT:0.20
G1 Z5.400 F720
G1 E-0.80000 F2400
G1 Z5.800 F9000
G1 X55.000 Y60.000 F9000
G1 Z5.400 F9000
G1 E0.80000 F2400
;TYPE:External perimeter
G1 X105.000 Y60.000 E1.74616 F3600
G1 X105.000 Y110.000 E1.74616 F3600
G1 X55.000 Y110.000 E1.74616 F3600
G1 X55.000 Y60.000 E1.74616 F3600
;TYPE:Solid infill
G1 X56.000 Y61.000 F9000
G1 X104.000 Y61.000 E1.67631 F3600
G1 X104.000 Y67.000 E0.20954 F3600
G1 X56.000 Y67.000 E1.67631 F3600
G1 X56.000 Y73.000 E0.20954 F3600
G1 X104.000 Y73.000 E1.67631 F3600
G1 X104.000 Y79.000 E0.20954 F3600
G1 X56.000 Y79.000 E1.67631 F3600
G1 X56.000 Y85.000 E0.20954 F3600
G1 X104.000 Y85.000 E1.67631 F3600
G1 X104.000 Y91.000 E0.20954 F3600
G1 X56.000 Y91.000 E1.67631 F3600
G1 X56.000 Y97.000 E0.20954 F3600
G1 X104.000 Y97.000 E1.67631 F3600
G1 X104.000 Y103.000 E0.20954 F3600
G1 X56.000 Y103.000 E1.67631 F3600
G1 X56.000 Y109.000 E0.20954 F3600
G1 E-0.80000 F2400
G1 Z5.800 F9000
G1 X130.000 Y60.000 F9000
G1 Z5.400 F9000
G1 E0.80000 F2400
;TYPE:External perimeter
G1 X180.000 Y60.000 E1.74616 F3600
G1 X180.000 Y110.000 E1.74616 F3600
G1 X130.000 Y110.000 E1.74616 F3600
G1 X130.000 Y60.000 E1.74616 F3600
;TYPE:Solid infill
G1 X131.000 Y61.000 F9000
G1 X179.000 Y61.000 E1.67631 F3600
G1 X179.000 Y67.000 E0.20954 F3600
G1 X131.000 Y67.000 E1.67631 F3600
G1 X131.000 Y73.000 E0.20954 F3600
G1 X179.000 Y73.000 E1.67631 F3600
G1 X179.000 Y79.000 E0.20954 F3600
G1 X131.000 Y79.000 E1.67631 F3600
G1 X131.000 Y85.000 E0.20954 F3600
G1 X179.000 Y85.000 E1.67631 F3600
G1 X179.000 Y91.000 E0.20954 F3600
G1 X131.000 Y91.000 E1.67631 F3600
G1 X131.000 Y97.000 E0.20954 F3600
G1 X179.000 Y97.000 E1.67631 F3600
G1 X179.000 Y103.000 E0.20954 F3600
G1 X131.000 Y103.000 E1.67631 F3600
G1 X131.000 Y109.000 E0.20954 F3600
;LAYER_CHANGE
;Z:5.60
;HEIGHT:0.20
G1 Z5.600 F720
G1 E-0.80000 F2400
G1 Z6.000 F9000
G1 X55.000 Y60.000 F9000
G1 Z5.600 F9000
G1 E0.80000 F2400
;TYPE:External perimeter
G1 X105.000 Y60.000 E1.74616 F3600
G1 X105.000 Y110.000 E1.74616 F3600
G1 X55.000 Y110.000 E1.74616 F3600
G1 X55.000 Y60.000 E1.74616 F3600
;TYPE:Solid infill
G1 X56.000 Y61.000 F9000
G1 X104.000 Y61.000 E1.67631 F3600
G1 X104.000 Y67.000 E0.20954 F3600
G1 X56.000 Y67.000 E1.67631 F3600
G1 X56.000 Y73.000 E0.20954 F3600
G1 X104.000 Y73.000 E1.67631 F3600
G1 X104.000 Y79.000 E0.20954 F3600
G1 X56.000 Y79.000 E1.67631 F3600
G1 X56.000 Y85.000 E0.20954 F3600
G1 X104.000 Y85.000 E1.67631 F3600
G1 X104.000 Y91.000 E0.20954 F3600
G1 X56.000 Y91.000 E1.67631 F3600
G1 X56.000 Y97.000 E0.20954 F3600
G1 X104.000 Y97.000 E1.67631 F3600
G1 X104.000 Y103.000 E0.20954 F3600
G1 X56.000 Y103.000 E1.67631 F3600
G1 X56.000 Y109.000 E0.20954 F3600
G1 E-0.80000 F2400
G1 Z6.000 F9000
G1 X130.000 Y60.000 F9000
G1 Z5.600 F9000
G1 E0.80000 F2400
;TYPE:External perimeter
G1 X180.000 Y60.000 E1.74616 F3600
G1 X180.000 Y110.000 E1.74616 F3600
G1 X130.000 Y110.000 E1.74616 F3600
G1 X130.000 Y60.000 E1.74616 F3600
;TYPE:Solid infill
G1 X131.000 Y61.000 F9000
G1 X179.000 Y61.000 E1.67631 F3600
G1 X179.000 Y67.000 E0.20954 F3600
G1 X131.000 Y67.000 E1.67631 F3600
G1 X131.000 Y73.000 E0.20954 F3600
G1 X179.000 Y73.000 E1.67631 F3600
G1 X179.000 Y79.000 E0.20954 F3600
G1 X131.000 Y79.000 E1.67631 F3600
G1 X131.000 Y85.000 E0.20954 F3600
G1 X179.000 Y85.000 E1.67631 F3600
G1 X179.000 Y91.000 E0.20954 F3600
G1 X131.000 Y91.000 E1.67631 F3600
G1 X131.000 Y97.000 E0.20954 F3600
G1 X179.000 Y97.000 E1.67631 F3600
G1 X179.000 Y103.000 E0.20954 F3600
G1 X131.000 Y103.000 E1.67631 F3600
G1 X131.000 Y109.000 E0.20954 F3600
;LAYER_CHANGE
;Z:5.80
;HEIGHT:0.20
G1 Z5.800 F720
G1 E-0.80000 F2400
G1 Z6.200 F9000
G1 X55.000 Y60.000 F9000
G1 Z5.800 F9000
G1 E0.80000 F2400
;TYPE:External perimeter
G1 X105.000 Y60.000 E1.74616 F3600
G1 X105.000 Y110.000 E1.74616 F3600
G1 X55.000 Y110.000 E1.74616 F3600
G1 X55.000 Y60.000 E1.74616 F3600
;TYPE:Solid infill
G1 X56.000 Y61.000 F9000
G1 X104.000 Y61.000 E1.67631 F3600
G1 X104.000 Y67.000 E0.20954 F3600
G1 X56.000 Y67.000 E1.67631 F3600
G1 X56.000 Y73.000 E0.20954 F3600
G1 X104.000 Y73.000 E1.67631 F3600
G1 X104.000 Y79.000 E0.20954 F3600
G1 X56.000 Y79.000 E1.67631 F3600
G1 X56.000 Y85.000 E0.20954 F3600
G1 X104.000 Y85.000 E1.67631 F3600
G1 X104.000 Y91.000 E0.20954 F3600
G1 X56.000 Y91.000 E1.67631 F3600
G1 X56.000 Y97.000 E0.20954 F3600
G1 X104.000 Y97.000 E1.67631 F3600
G1 X104.000 Y103.000 E0.20954 F3600
G1 X56.000 Y103.000 E1.67631 F3600
G1 X56.000 Y109.000 E0.20954 F3600
G1 E-0.80000 F2400
G1 Z6.200 F9000
G1 X130.000 Y60.000 F9000
G1 Z5.800 F9000
G1 E0.80000 F2400
;TYPE:External perimeter
G1 X180.000 Y60.000 E1.74616 F3600
G1 X180.000 Y110.000 E1.74616 F3600
G1 X130.000 Y110.000 E1.74616 F3600
G1 X130.000 Y60.000 E1.74616 F3600
;TYPE:Solid infill
G1 X131.000 Y61.000 F9000
G1 X179.000 Y61.000 E1.67631 F3600
G1 X179.000 Y67.000 E0.20954 F3600
G1 X131.000 Y67.000 E1.67631 F3600
G1 X131.000 Y73.000 E0.20954 F3600
G1 X179.000 Y73.000 E1.67631 F3600
G1 X179.000 Y79.000 E0.20954 F3600
G1 X131.000 Y79.000 E1.67631 F3600
G1 X131.000 Y85.000 E0.20954 F3600
G1 X179.000 Y85.000 E1.67631 F3600
G1 X179.000 Y91.000 E0.20954 F3600
G1 X131.000 Y91.000 E1.67631 F3600
G1 X131.000 Y97.000 E0.20954 F3600
G1 X179.000 Y97.000 E1.67631 F3600
G1 X179.000 Y103.000 E0.20954 F3600
G1 X131.000 Y103.000 E1.67631 F3600
G1 X131.000 Y109.000 E0.20954 F3600
;LAYER_CHANGE
;Z:6.00
;HEIGHT:0.20
G1 Z6.000 F720
G1 E-0.80000 F2400
G1 Z6.400 F9000
G1 X55.000 Y60.000 F9000
G1 Z6.000 F9000
G1 E0.80000 F2400
;TYPE:External perimeter
G1 X105.000 Y60.000 E1.74616 F3600
G1 X105.000 Y110.000 E1.74616 F3600
G1 X55.000 Y110.000 E1.74616 F3600
G1 X55.000 Y60.000 E1.74616 F3600
;TYPE:Solid infill
G1 X56.000 Y61.000 F9000
G1 X104.000 Y61.000 E1.67631 F3600
G1 X104.000 Y67.000 E0.20954 F3600
G1 X56.000 Y67.000 E1.67631 F3600
G1 X56.000 Y73.000 E0.20954 F3600
G1 X104.000 Y73.000 E1.67631 F3600
G1 X104.000 Y79.000 E0.20954 F3600
G1 X56.000 Y79.000 E1.67631 F3600
G1 X56.000 Y85.000 E0.20954 F3600
G1 X104.000 Y85.000 E1.67631 F3600
G1 X104.000 Y91.000 E0.20954 F3600
G1 X56.000 Y91.000 E1.67631 F3600
G1 X56.000 Y97.000 E0.20954 F3600
G1 X104.000 Y97.000 E1.67631 F3600
G1 X104.000 Y103.000 E0.20954 F3600
G1 X56.000 Y103.000 E1.67631 F3600
G1 X56.000 Y109.000 E0.20954 F3600
G1 E-0.80000 F2400
G1 Z6.400 F9000
G1 X130.000 Y60.000 F9000
G1 Z6.000 F9000
G1 E0.80000 F2400
;TYPE:External perimeter
G1 X180.000 Y60.000 E1.74616 F3600
G1 X180.000 Y110.000 E1.74616 F3600
G1 X130.000 Y110.000 E1.74616 F3600
G1 X130.000 Y60.000 E1.74616 F3600
;TYPE:Solid infill
G1 X131.000 Y61.000 F9000
G1 X179.000 Y61.000 E1.67631 F3600
G1 X179.000 Y67.000 E0.20954 F3600
G1 X131.000 Y67.000 E1.67631 F3600
G1 X131.000 Y73.000 E0.20954 F3600
G1 X179.000 Y73.000 E1.67631 F3600
G1 X179.000 Y79.000 E0.20954 F3600
G1 X131.000 Y79.000 E1.67631 F3600
G1 X131.000 Y85.000 E0.20954 F3600
G1 X179.000 Y85.000 E1.67631 F3600
G1 X179.000 Y91.000 E0.20954 F3600
G1 X131.000 Y91.000 E1.67631 F3600
G1 X131.000 Y97.000 E0.20954 F3600
G1 X179.000 Y97.000 E1.67631 F3600
G1 X179.000 Y103.000 E0.20954 F3600
G1 X131.000 Y103.000 E1.67631 F3600
G1 X131.000 Y109.000 E0.20954 F3600
G1 E-2.00000 F2400
M104 S0
M140 S0
M107
G1 Z16.000 F9000
G1 X0.000 Y200.000 F3000
M84 ; steppers off

; filament used [mm] = 1348.82
; filament used [cm3] = 3.24
; filament used [g] = 4.02
; estimated printing time (normal mode) = 12m 9s
; prusaslicer_config = begin
; filament_type = PLA
; first_layer_temperature = 215
; first_layer_bed_temperature = 60
; chamber_temperature = 0
; printer_model = MK4
; prusaslicer_config = end
