; generated by OrcaSlicer 2.0.0 on 2026-01-14 at 09:12:33
; total layer number: 30
; total filament length [mm] : 3200.00
; total filament volume [cm^3] : 7.70
; total filament weight [g] : 9.54
; model printing time: 8m 9s; total estimated time: 8m 9s
; filament_type = ABS
; nozzle_temperature_initial_layer = 250
; hot_plate_temp_initial_layer = 100
; chamber_temperature = 0
; printer_model = Bambu Lab X1 Carbon
G90
M83
M140 S100
M190 S100
M104 S250
M109 S250
G28 ; home
G92 E0
M107
G1 Z0.200 F720
G1 X5.000 Y20.000 F3000
G1 X5.000 Y180.000 E5.58770 F1200
G1 X5.400 Y180.000 E0.01397 F1200
G1 X5.400 Y20.000 E5.58770 F1200
; CHANGE_LAYER
; Z_HEIGHT: 0.20
; LAYER_HEIGHT: 0.20
G1 Z0.200 F720
M106 S255
; FEATURE: Skirt
G1 E-0.80000 F2400
G1 X51.000 Y56.000 F9000
G1 E0.80000 F2400
G1 X184.000 Y56.000 E4.64478 F3300
G1 X184.000 Y114.000 E2.02554 F3300
G1 X51.000 Y114.000 E4.64478 F3300
G1 X51.000 Y56.000 E2.02554 F3300
G1 E-0.80000 F2400
G1 X55.000 Y60.000 F9000
G1 E0.80000 F2400
; FEATURE: Outer wall
G1 X105.000 Y60.000 E1.74616 F3300
G1 X105.000 Y110.000 E1.74616 F3300
G1 X55.000 Y110.000 E1.74616 F3300
G1 X55.000 Y60.000 E1.74616 F3300
; FEATURE: Sparse infill
G1 X56.000 Y61.000 F9000
G1 X104.000 Y61.000 E1.67631 F3300
G1 X104.000 Y67.000 E0.20954 F3300
G1 X56.000 Y67.000 E1.67631 F3300
G1 X56.000 Y73.000 E0.20954 F3300
G1 X104.000 Y73.000 E1.67631 F3300
G1 X104.000 Y79.000 E0.20954 F3300
G1 X56.000 Y79.000 E1.67631 F3300
G1 X56.000 Y85.000 E0.20954 F3300
G1 X104.000 Y85.000 E1.67631 F3300
G1 X104.000 Y91.000 E0.20954 F3300
G1 X56.000 Y91.000 E1.67631 F3300
G1 X56.000 Y97.000 E0.20954 F3300
G1 X104.000 Y97.000 E1.67631 F3300
G1 X104.000 Y103.000 E0.20954 F3300
G1 X56.000 Y103.000 E1.67631 F3300
G1 X56.000 Y109.000 E0.20954 F3300
G1 E-0.80000 F2400
G1 X130.000 Y60.000 F9000
G1 E0.80000 F2400
; FEATURE: Outer wall
G1 X180.000 Y60.000 E1.74616 F3300
G1 X180.000 Y110.000 E1.74616 F3300
G1 X130.000 Y110.000 E1.74616 F3300
G1 X130.000 Y60.000 E1.74616 F3300
; FEATURE: Sparse infill
G1 X131.000 Y61.000 F9000
G1 X179.000 Y61.000 E1.67631 F3300
G1 X179.000 Y67.000 E0.20954 F3300
G1 X131.000 Y67.000 E1.67631 F3300
G1 X131.000 Y73.000 E0.20954 F3300
G1 X179.000 Y73.000 E1.67631 F3300
G1 X179.000 Y79.000 E0.20954 F3300
G1 X131.000 Y79.000 E1.67631 F3300
G1 X131.000 Y85.000 E0.20954 F3300
G1 X179.000 Y85.000 E1.67631 F3300
G1 X179.000 Y91.000 E0.20954 F3300
G1 X131.000 Y91.000 E1.67631 F3300
G1 X131.000 Y97.000 E0.20954 F3300
G1 X179.000 Y97.000 E1.67631 F3300
G1 X179.000 Y103.000 E0.20954 F3300
G1 X131.000 Y103.000 E1.67631 F3300
G1 X131.000 Y109.000 E0.20954 F3300
; CHANGE_LAYER
; Z_HEIGHT: 0.40
; LAYER_HEIGHT: 0.20
G1 Z0.400 F720
M106 S255
G1 E-0.80000 F2400
G1 X55.000 Y60.000 F9000
G1 E0.80000 F2400
; FEATURE: Outer wall
G1 X105.000 Y60.000 E1.74616 F5400
G1 X105.000 Y110.000 E1.74616 F5400
G1 X55.000 Y110.000 E1.74616 F5400
G1 X55.000 Y60.000 E1.74616 F5400
; FEATURE: Sparse infill
G1 X56.000 Y61.000 F9000
G1 X104.000 Y61.000 E1.67631 F5400
G1 X104.000 Y67.000 E0.20954 F5400
G1 X56.000 Y67.000 E1.67631 F5400
G1 X56.000 Y73.000 E0.20954 F5400
G1 X104.000 Y73.000 E1.67631 F5400
G1 X104.000 Y79.000 E0.20954 F5400
G1 X56.000 Y79.000 E1.67631 F5400
G1 X56.000 Y85.000 E0.20954 F5400
G1 X104.000 Y85.000 E1.67631 F5400
G1 X104.000 Y91.000 E0.20954 F5400
G1 X56.000 Y91.000 E1.67631 F5400
G1 X56.000 Y97.000 E0.20954 F5400
G1 X104.000 Y97.000 E1.67631 F5400
G1 X104.000 Y103.000 E0.20954 F5400
G1 X56.000 Y103.000 E1.67631 F5400
G1 X56.000 Y109.000 E0.20954 F5400
G1 E-0.80000 F2400
G1 X130.000 Y60.000 F9000
G1 E0.80000 F2400
; FEATURE: Outer wall
G1 X180.000 Y60.000 E1.74616 F5400
G1 X180.000 Y110.000 E1.74616 F5400
G1 X130.000 Y110.000 E1.74616 F5400
G1 X130.000 Y60.000 E1.74616 F5400
; FEATURE: Sparse infill
G1 X131.000 Y61.000 F9000
G1 X179.000 Y61.000 E1.67631 F5400
G1 X179.000 Y67.000 E0.20954 F5400
G1 X131.000 Y67.000 E1.67631 F5400
G1 X131.000 Y73.000 E0.20954 F5400
G1 X179.000 Y73.000 E1.67631 F5400
G1 X179.000 Y79.000 E0.20954 F5400
G1 X131.000 Y79.000 E1.67631 F5400
G1 X131.000 Y85.000 E0.20954 F5400
G1 X179.000 Y85.000 E1.67631 F5400
G1 X179.000 Y91.000 E0.20954 F5400
G1 X131.000 Y91.000 E1.67631 F5400
G1 X131.000 Y97.000 E0.20954 F5400
G1 X179.000 Y97.000 E1.67631 F5400
G1 X179.000 Y103.000 E0.20954 F5400
G1 X131.000 Y103.000 E1.67631 F5400
G1 X131.000 Y109.000 E0.20954 F5400
; CHANGE_LAYER
; Z_HEIGHT: 0.60
; LAYER_HEIGHT: 0.20
G1 Z0.600 F720
G1 E-0.80000 F2400
G1 X55.000 Y60.000 F9000
G1 E0.80000 F2400
; FEATURE: Outer wall
G1 X105.000 Y60.000 E1.74616 F5400
G1 X105.000 Y110.000 E1.74616 F5400
G1 X55.000 Y110.000 E1.74616 F5400
G1 X55.000 Y60.000 E1.74616 F5400
; FEATURE: Sparse infill
G1 X56.000 Y61.000 F9000
G1 X104.000 Y61.000 E1.67631 F5400
G1 X104.000 Y67.000 E0.20954 F5400
G1 X56.000 Y67.000 E1.67631 F5400
G1 X56.000 Y73.000 E0.20954 F5400
G1 X104.000 Y73.000 E1.67631 F5400
G1 X104.000 Y79.000 E0.20954 F5400
G1 X56.000 Y79.000 E1.67631 F5400
G1 X56.000 Y85.000 E0.20954 F5400
G1 X104.000 Y85.000 E1.67631 F5400
G1 X104.000 Y91.000 E0.20954 F5400
G1 X56.000 Y91.000 E1.67631 F5400
G1 X56.000 Y97.000 E0.20954 F5400
G1 X104.000 Y97.000 E1.67631 F5400
G1 X104.000 Y103.000 E0.20954 F5400
G1 X56.000 Y103.000 E1.67631 F5400
G1 X56.000 Y109.000 E0.20954 F5400
G1 E-0.80000 F2400
G1 X130.000 Y60.000 F9000
G1 E0.80000 F2400
; FEATURE: Outer wall
G1 X180.000 Y60.000 E1.74616 F5400
G1 X180.000 Y110.000 E1.74616 F5400
G1 X130.000 Y110.000 E1.74616 F5400
G1 X130.000 Y60.000 E1.74616 F5400
; FEATURE: Sparse infill
G1 X131.000 Y61.000 F9000
G1 X179.000 Y61.000 E1.67631 F5400
G1 X179.000 Y67.000 E0.20954 F5400
G1 X131.000 Y67.000 E1.67631 F5400
G1 X131.000 Y73.000 E0.20954 F5400
G1 X179.000 Y73.000 E1.67631 F5400
G1 X179.000 Y79.000 E0.20954 F5400
G1 X131.000 Y79.000 E1.67631 F5400
G1 X131.000 Y85.000 E0.20954 F5400
G1 X179.000 Y85.000 E1.67631 F5400
G1 X179.000 Y91.000 E0.20954 F5400
G1 X131.000 Y91.000 E1.67631 F5400
G1 X131.000 Y97.000 E0.20954 F5400
G1 X179.000 Y97.000 E1.67631 F5400
G1 X179.000 Y103.000 E0.20954 F5400
G1 X131.000 Y103.000 E1.67631 F5400
G1 X131.000 Y109.000 E0.20954 F5400
; CHANGE_LAYER
; Z_HEIGHT: 0.80
; LAYER_HEIGHT: 0.20
G1 Z0.800 F720
G1 E-0.80000 F2400
G1 X55.000 Y60.000 F9000
G1 E0.80000 F2400
; FEATURE: Outer wall
G1 X105.000 Y60.000 E1.74616 F5400
G1 X105.000 Y110.000 E1.74616 F5400
G1 X55.000 Y110.000 E1.74616 F5400
G1 X55.000 Y60.000 E1.74616 F5400
; FEATURE: Sparse infill
G1 X56.000 Y61.000 F9000
G1 X104.000 Y61.000 E1.67631 F5400
G1 X104.000 Y67.000 E0.20954 F5400
G1 X56.000 Y67.000 E1.67631 F5400
G1 X56.000 Y73.000 E0.20954 F5400
G1 X104.000 Y73.000 E1.67631 F5400
G1 X104.000 Y79.000 E0.20954 F5400
G1 X56.000 Y79.000 E1.67631 F5400
G1 X56.000 Y85.000 E0.20954 F5400
G1 X104.000 Y85.000 E1.67631 F5400
G1 X104.000 Y91.000 E0.20954 F5400
G1 X56.000 Y91.000 E1.67631 F5400
G1 X56.000 Y97.000 E0.20954 F5400
G1 X104.000 Y97.000 E1.67631 F5400
G1 X104.000 Y103.000 E0.20954 F5400
G1 X56.000 Y103.000 E1.67631 F5400
G1 X56.000 Y109.000 E0.20954 F5400
G1 E-0.80000 F2400
G1 X130.000 Y60.000 F9000
G1 E0.80000 F2400
; FEATURE: Outer wall
G1 X180.000 Y60.000 E1.74616 F5400
G1 X180.000 Y110.000 E1.74616 F5400
G1 X130.000 Y110.000 E1.74616 F5400
G1 X130.000 Y60.000 E1.74616 F5400
; FEATURE: Sparse infill
G1 X131.000 Y61.000 F9000
G1 X179.000 Y61.000 E1.67631 F5400
G1 X179.000 Y67.000 E0.20954 F5400
G1 X131.000 Y67.000 E1.67631 F5400
G1 X131.000 Y73.000 E0.20954 F5400
G1 X179.000 Y73.000 E1.67631 F5400
G1 X179.000 Y79.000 E0.20954 F5400
G1 X131.000 Y79.000 E1.67631 F5400
G1 X131.000 Y85.000 E0.20954 F5400
G1 X179.000 Y85.000 E1.67631 F5400
G1 X179.000 Y91.000 E0.20954 F5400
G1 X131.000 Y91.000 E1.67631 F5400
G1 X131.000 Y97.000 E0.20954 F5400
G1 X179.000 Y97.000 E1.67631 F5400
G1 X179.000 Y103.000 E0.20954 F5400
G1 X131.000 Y103.000 E1.67631 F5400
G1 X131.000 Y109.000 E0.20954 F5400
; CHANGE_LAYER
; Z_HEIGHT: 1.00
; LAYER_HEIGHT: 0.20
G1 Z1.000 F720
G1 E-0.80000 F2400
G1 X55.000 Y60.000 F9000
G1 E0.80000 F2400
; FEATURE: Outer wall
G1 X105.000 Y60.000 E1.74616 F5400
G1 X105.000 Y110.000 E1.74616 F5400
G1 X55.000 Y110.000 E1.74616 F5400
G1 X55.000 Y60.000 E1.74616 F5400
; FEATURE: Sparse infill
G1 X56.000 Y61.000 F9000
G1 X104.000 Y61.000 E1.67631 F5400
G1 X104.000 Y67.000 E0.20954 F5400
G1 X56.000 Y67.000 E1.67631 F5400
G1 X56.000 Y73.000 E0.20954 F5400
G1 X104.000 Y73.000 E1.67631 F5400
G1 X104.000 Y79.000 E0.20954 F5400
G1 X56.000 Y79.000 E1.67631 F5400
G1 X56.000 Y85.000 E0.20954 F5400
G1 X104.000 Y85.000 E1.67631 F5400
G1 X104.000 Y91.000 E0.20954 F5400
G1 X56.000 Y91.000 E1.67631 F5400
G1 X56.000 Y97.000 E0.20954 F5400
G1 X104.000 Y97.000 E1.67631 F5400
G1 X104.000 Y103.000 E0.20954 F5400
G1 X56.000 Y103.000 E1.67631 F5400
G1 X56.000 Y109.000 E0.20954 F5400
G1 E-0.80000 F2400
G1 X130.000 Y60.000 F9000
G1 E0.80000 F2400
; FEATURE: Outer wall
G1 X180.000 Y60.000 E1.74616 F5400
G1 X180.000 Y110.000 E1.74616 F5400
G1 X130.000 Y110.000 E1.74616 F5400
G1 X130.000 Y60.000 E1.74616 F5400
; FEATURE: Sparse infill
G1 X131.000 Y61.000 F9000
G1 X179.000 Y61.000 E1.67631 F5400
G1 X179.000 Y67.000 E0.20954 F5400
G1 X131.000 Y67.000 E1.67631 F5400
G1 X131.000 Y73.000 E0.20954 F5400
G1 X179.000 Y73.000 E1.67631 F5400
G1 X179.000 Y79.000 E0.20954 F5400
G1 X131.000 Y79.000 E1.67631 F5400
G1 X131.000 Y85.000 E0.20954 F5400
G1 X179.000 Y85.000 E1.67631 F5400
G1 X179.000 Y91.000 E0.20954 F5400
G1 X131.000 Y91.000 E1.67631 F5400
G1 X131.000 Y97.000 E0.20954 F5400
G1 X179.000 Y97.000 E1.67631 F5400
G1 X179.000 Y103.000 E0.20954 F5400
G1 X131.000 Y103.000 E1.67631 F5400
G1 X131.000 Y109.000 E0.20954 F5400
; CHANGE_LAYER
; Z_HEIGHT: 1.20
; LAYER_HEIGHT: 0.20
G1 Z1.200 F720
G1 E-0.80000 F2400
G1 X55.000 Y60.000 F9000
G1 E0.80000 F2400
; FEATURE: Outer wall
G1 X105.000 Y60.000 E1.74616 F5400
G1 X105.000 Y110.000 E1.74616 F5400
G1 X55.000 Y110.000 E1.74616 F5400
G1 X55.000 Y60.000 E1.74616 F5400
; FEATURE: Sparse infill
G1 X56.000 Y61.000 F9000
G1 X104.000 Y61.000 E1.67631 F5400
G1 X104.000 Y67.000 E0.20954 F5400
G1 X56.000 Y67.000 E1.67631 F5400
G1 X56.000 Y73.000 E0.20954 F5400
G1 X104.000 Y73.000 E1.67631 F5400
G1 X104.000 Y79.000 E0.20954 F5400
G1 X56.000 Y79.000 E1.67631 F5400
G1 X56.000 Y85.000 E0.20954 F5400
G1 X104.000 Y85.000 E1.67631 F5400
G1 X104.000 Y91.000 E0.20954 F5400
G1 X56.000 Y91.000 E1.67631 F5400
G1 X56.000 Y97.000 E0.20954 F5400
G1 X104.000 Y97.000 E1.67631 F5400
G1 X104.000 Y103.000 E0.20954 F5400
G1 X56.000 Y103.000 E1.67631 F5400
G1 X56.000 Y109.000 E0.20954 F5400
G1 E-0.80000 F2400
G1 X130.000 Y60.000 F9000
G1 E0.80000 F2400
; FEATURE: Outer wall
G1 X180.000 Y60.000 E1.74616 F5400
G1 X180.000 Y110.000 E1.74616 F5400
G1 X130.000 Y110.000 E1.74616 F5400
G1 X130.000 Y60.000 E1.74616 F5400
; FEATURE: Sparse infill
G1 X131.000 Y61.000 F9000
G1 X179.000 Y61.000 E1.67631 F5400
G1 X179.000 Y67.000 E0.20954 F5400
G1 X131.000 Y67.000 E1.67631 F5400
G1 X131.000 Y73.000 E0.20954 F5400
G1 X179.000 Y73.000 E1.67631 F5400
G1 X179.000 Y79.000 E0.20954 F5400
G1 X131.000 Y79.000 E1.67631 F5400
G1 X131.000 Y85.000 E0.20954 F5400
G1 X179.000 Y85.000 E1.67631 F5400
G1 X179.000 Y91.000 E0.20954 F5400
G1 X131.000 Y91.000 E1.67631 F5400
G1 X131.000 Y97.000 E0.20954 F5400
G1 X179.000 Y97.000 E1.67631 F5400
G1 X179.000 Y103.000 E0.20954 F5400
G1 X131.000 Y103.000 E1.67631 F5400
G1 X131.000 Y109.000 E0.20954 F5400
; CHANGE_LAYER
; Z_HEIGHT: 1.40
; LAYER_HEIGHT: 0.20
G1 Z1.400 F720
G1 E-0.80000 F2400
G1 X55.000 Y60.000 F9000
G1 E0.80000 F2400
; FEATURE: Outer wall
G1 X105.000 Y60.000 E1.74616 F5400
G1 X105.000 Y110.000 E1.74616 F5400
G1 X55.000 Y110.000 E1.74616 F5400
G1 X55.000 Y60.000 E1.74616 F5400
; FEATURE: Sparse infill
G1 X56.000 Y61.000 F9000
G1 X104.000 Y61.000 E1.67631 F5400
G1 X104.000 Y67.000 E0.20954 F5400
G1 X56.000 Y67.000 E1.67631 F5400
G1 X56.000 Y73.000 E0.20954 F5400
G1 X104.000 Y73.000 E1.67631 F5400
G1 X104.000 Y79.000 E0.20954 F5400
G1 X56.000 Y79.000 E1.67631 F5400
G1 X56.000 Y85.000 E0.20954 F5400
G1 X104.000 Y85.000 E1.67631 F5400
G1 X104.000 Y91.000 E0.20954 F5400
G1 X56.000 Y91.000 E1.67631 F5400
G1 X56.000 Y97.000 E0.20954 F5400
G1 X104.000 Y97.000 E1.67631 F5400
G1 X104.000 Y103.000 E0.20954 F5400
G1 X56.000 Y103.000 E1.67631 F5400
G1 X56.000 Y109.000 E0.20954 F5400
G1 E-0.80000 F2400
G1 X130.000 Y60.000 F9000
G1 E0.80000 F2400
; FEATURE: Outer wall
G1 X180.000 Y60.000 E1.74616 F5400
G1 X180.000 Y110.000 E1.74616 F5400
G1 X130.000 Y110.000 E1.74616 F5400
G1 X130.000 Y60.000 E1.74616 F5400
; FEATURE: Sparse infill
G1 X131.000 Y61.000 F9000
G1 X179.000 Y61.000 E1.67631 F5400
G1 X179.000 Y67.000 E0.20954 F5400
G1 X131.000 Y67.000 E1.67631 F5400
G1 X131.000 Y73.000 E0.20954 F5400
G1 X179.000 Y73.000 E1.67631 F5400
G1 X179.000 Y79.000 E0.20954 F5400
G1 X131.000 Y79.000 E1.67631 F5400
G1 X131.000 Y85.000 E0.20954 F5400
G1 X179.000 Y85.000 E1.67631 F5400
G1 X179.000 Y91.000 E0.20954 F5400
G1 X131.000 Y91.000 E1.67631 F5400
G1 X131.000 Y97.000 E0.20954 F5400
G1 X179.000 Y97.000 E1.67631 F5400
G1 X179.000 Y103.000 E0.20954 F5400
G1 X131.000 Y103.000 E1.67631 F5400
G1 X131.000 Y109.000 E0.20954 F5400
; CHANGE_LAYER
; Z_HEIGHT: 1.60
; LAYER_HEIGHT: 0.20
G1 Z1.600 F720
G1 E-0.80000 F2400
G1 X55.000 Y60.000 F9000
G1 E0.80000 F2400
; FEATURE: Outer wall
G1 X105.000 Y60.000 E1.74616 F5400
G1 X105.000 Y110.000 E1.74616 F5400
G1 X55.000 Y110.000 E1.74616 F5400
G1 X55.000 Y60.000 E1.74616 F5400
; FEATURE: Sparse infill
G1 X56.000 Y61.000 F9000
G1 X104.000 Y61.000 E1.67631 F5400
G1 X104.000 Y67.000 E0.20954 F5400
G1 X56.000 Y67.000 E1.67631 F5400
G1 X56.000 Y73.000 E0.20954 F5400
G1 X104.000 Y73.000 E1.67631 F5400
G1 X104.000 Y79.000 E0.20954 F5400
G1 X56.000 Y79.000 E1.67631 F5400
G1 X56.000 Y85.000 E0.20954 F5400
G1 X104.000 Y85.000 E1.67631 F5400
G1 X104.000 Y91.000 E0.20954 F5400
G1 X56.000 Y91.000 E1.67631 F5400
G1 X56.000 Y97.000 E0.20954 F5400
G1 X104.000 Y97.000 E1.67631 F5400
G1 X104.000 Y103.000 E0.20954 F5400
G1 X56.000 Y103.000 E1.67631 F5400
G1 X56.000 Y109.000 E0.20954 F5400
G1 E-0.80000 F2400
G1 X130.000 Y60.000 F9000
G1 E0.80000 F2400
; FEATURE: Outer wall
G1 X180.000 Y60.000 E1.74616 F5400
G1 X180.000 Y110.000 E1.74616 F5400
G1 X130.000 Y110.000 E1.74616 F5400
G1 X130.000 Y60.000 E1.74616 F5400
; FEATURE: Sparse infill
G1 X131.000 Y61.000 F9000
G1 X179.000 Y61.000 E1.67631 F5400
G1 X179.000 Y67.000 E0.20954 F5400
G1 X131.000 Y67.000 E1.67631 F5400
G1 X131.000 Y73.000 E0.20954 F5400
G1 X179.000 Y73.000 E1.67631 F5400
G1 X179.000 Y79.000 E0.20954 F5400
G1 X131.000 Y79.000 E1.67631 F5400
G1 X131.000 Y85.000 E0.20954 F5400
G1 X179.000 Y85.000 E1.67631 F5400
G1 X179.000 Y91.000 E0.20954 F5400
G1 X131.000 Y91.000 E1.67631 F5400
G1 X131.000 Y97.000 E0.20954 F5400
G1 X179.000 Y97.000 E1.67631 F5400
G1 X179.000 Y103.000 E0.20954 F5400
G1 X131.000 Y103.000 E1.67631 F5400
G1 X131.000 Y109.000 E0.20954 F5400
; CHANGE_LAYER
; Z_HEIGHT: 1.80
; LAYER_HEIGHT: 0.20
G1 Z1.800 F720
G1 E-0.80000 F2400
G1 X55.000 Y60.000 F9000
G1 E0.80000 F2400
; FEATURE: Outer wall
G1 X105.000 Y60.000 E1.74616 F5400
G1 X105.000 Y110.000 E1.74616 F5400
G1 X55.000 Y110.000 E1.74616 F5400
G1 X55.000 Y60.000 E1.74616 F5400
; FEATURE: Sparse infill
G1 X56.000 Y61.000 F9000
G1 X104.000 Y61.000 E1.67631 F5400
G1 X104.000 Y67.000 E0.20954 F5400
G1 X56.000 Y67.000 E1.67631 F5400
G1 X56.000 Y73.000 E0.20954 F5400
G1 X104.000 Y73.000 E1.67631 F5400
G1 X104.000 Y79.000 E0.20954 F5400
G1 X56.000 Y79.000 E1.67631 F5400
G1 X56.000 Y85.000 E0.20954 F5400
G1 X104.000 Y85.000 E1.67631 F5400
G1 X104.000 Y91.000 E0.20954 F5400
G1 X56.000 Y91.000 E1.67631 F5400
G1 X56.000 Y97.000 E0.20954 F5400
G1 X104.000 Y97.000 E1.67631 F5400
G1 X104.000 Y103.000 E0.20954 F5400
G1 X56.000 Y103.000 E1.67631 F5400
G1 X56.000 Y109.000 E0.20954 F5400
G1 E-0.80000 F2400
G1 X130.000 Y60.000 F9000
G1 E0.80000 F2400
; FEATURE: Outer wall
G1 X180.000 Y60.000 E1.74616 F5400
G1 X180.000 Y110.000 E1.74616 F5400
G1 X130.000 Y110.000 E1.74616 F5400
G1 X130.000 Y60.000 E1.74616 F5400
; FEATURE: Sparse infill
G1 X131.000 Y61.000 F9000
G1 X179.000 Y61.000 E1.67631 F5400
G1 X179.000 Y67.000 E0.20954 F5400
G1 X131.000 Y67.000 E1.67631 F5400
G1 X131.000 Y73.000 E0.20954 F5400
G1 X179.000 Y73.000 E1.67631 F5400
G1 X179.000 Y79.000 E0.20954 F5400
G1 X131.000 Y79.000 E1.67631 F5400
G1 X131.000 Y85.000 E0.20954 F5400
G1 X179.000 Y85.000 E1.67631 F5400
G1 X179.000 Y91.000 E0.20954 F5400
G1 X131.000 Y91.000 E1.67631 F5400
G1 X131.000 Y97.000 E0.20954 F5400
G1 X179.000 Y97.000 E1.67631 F5400
G1 X179.000 Y103.000 E0.20954 F5400
G1 X131.000 Y103.000 E1.67631 F5400
G1 X131.000 Y109.000 E0.20954 F5400
; CHANGE_LAYER
; Z_HEIGHT: 2.00
; LAYER_HEIGHT: 0.20
G1 Z2.000 F720
G1 E-0.80000 F2400
G1 X55.000 Y60.000 F9000
G1 E0.80000 F2400
; FEATURE: Outer wall
G1 X105.000 Y60.000 E1.74616 F5400
G1 X105.000 Y110.000 E1.74616 F5400
G1 X55.000 Y110.000 E1.74616 F5400
G1 X55.000 Y60.000 E1.74616 F5400
; FEATURE: Sparse infill
G1 X56.000 Y61.000 F9000
G1 X104.000 Y61.000 E1.67631 F5400
G1 X104.000 Y67.000 E0.20954 F5400
G1 X56.000 Y67.000 E1.67631 F5400
G1 X56.000 Y73.000 E0.20954 F5400
G1 X104.000 Y73.000 E1.67631 F5400
G1 X104.000 Y79.000 E0.20954 F5400
G1 X56.000 Y79.000 E1.67631 F5400
G1 X56.000 Y85.000 E0.20954 F5400
G1 X104.000 Y85.000 E1.67631 F5400
G1 X104.000 Y91.000 E0.20954 F5400
G1 X56.000 Y91.000 E1.67631 F5400
G1 X56.000 Y97.000 E0.20954 F5400
G1 X104.000 Y97.000 E1.67631 F5400
G1 X104.000 Y103.000 E0.20954 F5400
G1 X56.000 Y103.000 E1.67631 F5400
G1 X56.000 Y109.000 E0.20954 F5400
G1 E-0.80000 F2400
G1 X130.000 Y60.000 F9000
G1 E0.80000 F2400
; FEATURE: Outer wall
G1 X180.000 Y60.000 E1.74616 F5400
G1 X180.000 Y110.000 E1.74616 F5400
G1 X130.000 Y110.000 E1.74616 F5400
G1 X130.000 Y60.000 E1.74616 F5400
; FEATURE: Sparse infill
G1 X131.000 Y61.000 F9000
G1 X179.000 Y61.000 E1.67631 F5400
G1 X179.000 Y67.000 E0.20954 F5400
G1 X131.000 Y67.000 E1.67631 F5400
G1 X131.000 Y73.000 E0.20954 F5400
G1 X179.000 Y73.000 E1.67631 F5400
G1 X179.000 Y79.000 E0.20954 F5400
G1 X131.000 Y79.000 E1.67631 F5400
G1 X131.000 Y85.000 E0.20954 F5400
G1 X179.000 Y85.000 E1.67631 F5400
G1 X179.000 Y91.000 E0.20954 F5400
G1 X131.000 Y91.000 E1.67631 F5400
G1 X131.000 Y97.000 E0.20954 F5400
G1 X179.000 Y97.000 E1.67631 F5400
G1 X179.000 Y103.000 E0.20954 F5400
G1 X131.000 Y103.000 E1.67631 F5400
G1 X131.000 Y109.000 E0.20954 F5400
; CHANGE_LAYER
; Z_HEIGHT: 2.20
; LAYER_HEIGHT: 0.20
G1 Z2.200 F720
G1 E-0.80000 F2400
G1 X55.000 Y60.000 F9000
G1 E0.80000 F2400
; FEATURE: Outer wall
G1 X105.000 Y60.000 E1.74616 F5400
G1 X105.000 Y110.000 E1.74616 F5400
G1 X55.000 Y110.000 E1.74616 F5400
G1 X55.000 Y60.000 E1.74616 F5400
; FEATURE: Sparse infill
G1 X56.000 Y61.000 F9000
G1 X104.000 Y61.000 E1.67631 F5400
G1 X104.000 Y67.000 E0.20954 F5400
G1 X56.000 Y67.000 E1.67631 F5400
G1 X56.000 Y73.000 E0.20954 F5400
G1 X104.000 Y73.000 E1.67631 F5400
G1 X104.000 Y79.000 E0.20954 F5400
G1 X56.000 Y79.000 E1.67631 F5400
G1 X56.000 Y85.000 E0.20954 F5400
G1 X104.000 Y85.000 E1.67631 F5400
G1 X104.000 Y91.000 E0.20954 F5400
G1 X56.000 Y91.000 E1.67631 F5400
G1 X56.000 Y97.000 E0.20954 F5400
G1 X104.000 Y97.000 E1.67631 F5400
G1 X104.000 Y103.000 E0.20954 F5400
G1 X56.000 Y103.000 E1.67631 F5400
G1 X56.000 Y109.000 E0.20954 F5400
G1 E-0.80000 F2400
G1 X130.000 Y60.000 F9000
G1 E0.80000 F2400
; FEATURE: Outer wall
G1 X180.000 Y60.000 E1.74616 F5400
G1 X180.000 Y110.000 E1.74616 F5400
G1 X130.000 Y110.000 E1.74616 F5400
G1 X130.000 Y60.000 E1.74616 F5400
; FEATURE: Sparse infill
G1 X131.000 Y61.000 F9000
G1 X179.000 Y61.000 E1.67631 F5400
G1 X179.000 Y67.000 E0.20954 F5400
G1 X131.000 Y67.000 E1.67631 F5400
G1 X131.000 Y73.000 E0.20954 F5400
G1 X179.000 Y73.000 E1.67631 F5400
G1 X179.000 Y79.000 E0.20954 F5400
G1 X131.000 Y79.000 E1.67631 F5400
G1 X131.000 Y85.000 E0.20954 F5400
G1 X179.000 Y85.000 E1.67631 F5400
G1 X179.000 Y91.000 E0.20954 F5400
G1 X131.000 Y91.000 E1.67631 F5400
G1 X131.000 Y97.000 E0.20954 F5400
G1 X179.000 Y97.000 E1.67631 F5400
G1 X179.000 Y103.000 E0.20954 F5400
G1 X131.000 Y103.000 E1.67631 F5400
G1 X131.000 Y109.000 E0.20954 F5400
; CHANGE_LAYER
; Z_HEIGHT: 2.40
; LAYER_HEIGHT: 0.20
G1 Z2.400 F720
G1 E-0.80000 F2400
G1 X55.000 Y60.000 F9000
G1 E0.80000 F2400
; FEATURE: Outer wall
G1 X105.000 Y60.000 E1.74616 F5400
G1 X105.000 Y110.000 E1.74616 F5400
G1 X55.000 Y110.000 E1.74616 F5400
G1 X55.000 Y60.000 E1.74616 F5400
; FEATURE: Sparse infill
G1 X56.000 Y61.000 F9000
G1 X104.000 Y61.000 E1.67631 F5400
G1 X104.000 Y67.000 E0.20954 F5400
G1 X56.000 Y67.000 E1.67631 F5400
G1 X56.000 Y73.000 E0.20954 F5400
G1 X104.000 Y73.000 E1.67631 F5400
G1 X104.000 Y79.000 E0.20954 F5400
G1 X56.000 Y79.000 E1.67631 F5400
G1 X56.000 Y85.000 E0.20954 F5400
G1 X104.000 Y85.000 E1.67631 F5400
G1 X104.000 Y91.000 E0.20954 F5400
G1 X56.000 Y91.000 E1.67631 F5400
G1 X56.000 Y97.000 E0.20954 F5400
G1 X104.000 Y97.000 E1.67631 F5400
G1 X104.000 Y103.000 E0.20954 F5400
G1 X56.000 Y103.000 E1.67631 F5400
G1 X56.000 Y109.000 E0.20954 F5400
G1 E-0.80000 F2400
G1 X130.000 Y60.000 F9000
G1 E0.80000 F2400
; FEATURE: Outer wall
G1 X180.000 Y60.000 E1.74616 F5400
G1 X180.000 Y110.000 E1.74616 F5400
G1 X130.000 Y110.000 E1.74616 F5400
G1 X130.000 Y60.000 E1.74616 F5400
; FEATURE: Sparse infill
G1 X131.000 Y61.000 F9000
G1 X179.000 Y61.000 E1.67631 F5400
G1 X179.000 Y67.000 E0.20954 F5400
G1 X131.000 Y67.000 E1.67631 F5400
G1 X131.000 Y73.000 E0.20954 F5400
G1 X179.000 Y73.000 E1.67631 F5400
G1 X179.000 Y79.000 E0.20954 F5400
G1 X131.000 Y79.000 E1.67631 F5400
G1 X131.000 Y85.000 E0.20954 F5400
G1 X179.000 Y85.000 E1.67631 F5400
G1 X179.000 Y91.000 E0.20954 F5400
G1 X131.000 Y91.000 E1.67631 F5400
G1 X131.000 Y97.000 E0.20954 F5400
G1 X179.000 Y97.000 E1.67631 F5400
G1 X179.000 Y103.000 E0.20954 F5400
G1 X131.000 Y103.000 E1.67631 F5400
G1 X131.000 Y109.000 E0.20954 F5400
; CHANGE_LAYER
; Z_HEIGHT: 2.60
; LAYER_HEIGHT: 0.20
G1 Z2.600 F720
G1 E-0.80000 F2400
G1 X55.000 Y60.000 F9000
G1 E0.80000 F2400
; FEATURE: Outer wall
G1 X105.000 Y60.000 E1.74616 F5400
G1 X105.000 Y110.000 E1.74616 F5400
G1 X55.000 Y110.000 E1.74616 F5400
G1 X55.000 Y60.000 E1.74616 F5400
; FEATURE: Sparse infill
G1 X56.000 Y61.000 F9000
G1 X104.000 Y61.000 E1.67631 F5400
G1 X104.000 Y67.000 E0.20954 F5400
G1 X56.000 Y67.000 E1.67631 F5400
G1 X56.000 Y73.000 E0.20954 F5400
G1 X104.000 Y73.000 E1.67631 F5400
G1 X104.000 Y79.000 E0.20954 F5400
G1 X56.000 Y79.000 E1.67631 F5400
G1 X56.000 Y85.000 E0.20954 F5400
G1 X104.000 Y85.000 E1.67631 F5400
G1 X104.000 Y91.000 E0.20954 F5400
G1 X56.000 Y91.000 E1.67631 F5400
G1 X56.000 Y97.000 E0.20954 F5400
G1 X104.000 Y97.000 E1.67631 F5400
G1 X104.000 Y103.000 E0.20954 F5400
G1 X56.000 Y103.000 E1.67631 F5400
G1 X56.000 Y109.000 E0.20954 F5400
G1 E-0.80000 F2400
G1 X130.000 Y60.000 F9000
G1 E0.80000 F2400
; FEATURE: Outer wall
G1 X180.000 Y60.000 E1.74616 F5400
G1 X180.000 Y110.000 E1.74616 F5400
G1 X130.000 Y110.000 E1.74616 F5400
G1 X130.000 Y60.000 E1.74616 F5400
; FEATURE: Sparse infill
G1 X131.000 Y61.000 F9000
G1 X179.000 Y61.000 E1.67631 F5400
G1 X179.000 Y67.000 E0.20954 F5400
G1 X131.000 Y67.000 E1.67631 F5400
G1 X131.000 Y73.000 E0.20954 F5400
G1 X179.000 Y73.000 E1.67631 F5400
G1 X179.000 Y79.000 E0.20954 F5400
G1 X131.000 Y79.000 E1.67631 F5400
G1 X131.000 Y85.000 E0.20954 F5400
G1 X179.000 Y85.000 E1.67631 F5400
G1 X179.000 Y91.000 E0.20954 F5400
G1 X131.000 Y91.000 E1.67631 F5400
G1 X131.000 Y97.000 E0.20954 F5400
G1 X179.000 Y97.000 E1.67631 F5400
G1 X179.000 Y103.000 E0.20954 F5400
G1 X131.000 Y103.000 E1.67631 F5400
G1 X131.000 Y109.000 E0.20954 F5400
; CHANGE_LAYER
; Z_HEIGHT: 2.80
; LAYER_HEIGHT: 0.20
G1 Z2.800 F720
G1 E-0.80000 F2400
G1 X55.000 Y60.000 F9000
G1 E0.80000 F2400
; FEATURE: Outer wall
G1 X105.000 Y60.000 E1.74616 F5400
G1 X105.000 Y110.000 E1.74616 F5400
G1 X55.000 Y110.000 E1.74616 F5400
G1 X55.000 Y60.000 E1.74616 F5400
; FEATURE: Sparse infill
G1 X56.000 Y61.000 F9000
G1 X104.000 Y61.000 E1.67631 F5400
G1 X104.000 Y67.000 E0.20954 F5400
G1 X56.000 Y67.000 E1.67631 F5400
G1 X56.000 Y73.000 E0.20954 F5400
G1 X104.000 Y73.000 E1.67631 F5400
G1 X104.000 Y79.000 E0.20954 F5400
G1 X56.000 Y79.000 E1.67631 F5400
G1 X56.000 Y85.000 E0.20954 F5400
G1 X104.000 Y85.000 E1.67631 F5400
G1 X104.000 Y91.000 E0.20954 F5400
G1 X56.000 Y91.000 E1.67631 F5400
G1 X56.000 Y97.000 E0.20954 F5400
G1 X104.000 Y97.000 E1.67631 F5400
G1 X104.000 Y103.000 E0.20954 F5400
G1 X56.000 Y103.000 E1.67631 F5400
G1 X56.000 Y109.000 E0.20954 F5400
G1 E-0.80000 F2400
G1 X130.000 Y60.000 F9000
G1 E0.80000 F2400
; FEATURE: Outer wall
G1 X180.000 Y60.000 E1.74616 F5400
G1 X180.000 Y110.000 E1.74616 F5400
G1 X130.000 Y110.000 E1.74616 F5400
G1 X130.000 Y60.000 E1.74616 F5400
; FEATURE: Sparse infill
G1 X131.000 Y61.000 F9000
G1 X179.000 Y61.000 E1.67631 F5400
G1 X179.000 Y67.000 E0.20954 F5400
G1 X131.000 Y67.000 E1.67631 F5400
G1 X131.000 Y73.000 E0.20954 F5400
G1 X179.000 Y73.000 E1.67631 F5400
G1 X179.000 Y79.000 E0.20954 F5400
G1 X131.000 Y79.000 E1.67631 F5400
G1 X131.000 Y85.000 E0.20954 F5400
G1 X179.000 Y85.000 E1.67631 F5400
G1 X179.000 Y91.000 E0.20954 F5400
G1 X131.000 Y91.000 E1.67631 F5400
G1 X131.000 Y97.000 E0.20954 F5400
G1 X179.000 Y97.000 E1.67631 F5400
G1 X179.000 Y103.000 E0.20954 F5400
G1 X131.000 Y103.000 E1.67631 F5400
G1 X131.000 Y109.000 E0.20954 F5400
; CHANGE_LAYER
; Z_HEIGHT: 3.00
; LAYER_HEIGHT: 0.20
G1 Z3.000 F720
G1 E-0.80000 F2400
G1 X55.000 Y60.000 F9000
G1 E0.80000 F2400
; FEATURE: Outer wall
G1 X105.000 Y60.000 E1.74616 F5400
G1 X105.000 Y110.000 E1.74616 F5400
G1 X55.000 Y110.000 E1.74616 F5400
G1 X55.000 Y60.000 E1.74616 F5400
; FEATURE: Sparse infill
G1 X56.000 Y61.000 F9000
G1 X104.000 Y61.000 E1.67631 F5400
G1 X104.000 Y67.000 E0.20954 F5400
G1 X56.000 Y67.000 E1.67631 F5400
G1 X56.000 Y73.000 E0.20954 F5400
G1 X104.000 Y73.000 E1.67631 F5400
G1 X104.000 Y79.000 E0.20954 F5400
G1 X56.000 Y79.000 E1.67631 F5400
G1 X56.000 Y85.000 E0.20954 F5400
G1 X104.000 Y85.000 E1.67631 F5400
G1 X104.000 Y91.000 E0.20954 F5400
G1 X56.000 Y91.000 E1.67631 F5400
G1 X56.000 Y97.000 E0.20954 F5400
G1 X104.000 Y97.000 E1.67631 F5400
G1 X104.000 Y103.000 E0.20954 F5400
G1 X56.000 Y103.000 E1.67631 F5400
G1 X56.000 Y109.000 E0.20954 F5400
G1 E-0.80000 F2400
G1 X130.000 Y60.000 F9000
G1 E0.80000 F2400
; FEATURE: Outer wall
G1 X180.000 Y60.000 E1.74616 F5400
G1 X180.000 Y110.000 E1.74616 F5400
G1 X130.000 Y110.000 E1.74616 F5400
G1 X130.000 Y60.000 E1.74616 F5400
; FEATURE: Sparse infill
G1 X131.000 Y61.000 F9000
G1 X179.000 Y61.000 E1.67631 F5400
G1 X179.000 Y67.000 E0.20954 F5400
G1 X131.000 Y67.000 E1.67631 F5400
G1 X131.000 Y73.000 E0.20954 F5400
G1 X179.000 Y73.000 E1.67631 F5400
G1 X179.000 Y79.000 E0.20954 F5400
G1 X131.000 Y79.000 E1.67631 F5400
G1 X131.000 Y85.000 E0.20954 F5400
G1 X179.000 Y85.000 E1.67631 F5400
G1 X179.000 Y91.000 E0.20954 F5400
G1 X131.000 Y91.000 E1.67631 F5400
G1 X131.000 Y97.000 E0.20954 F5400
G1 X179.000 Y97.000 E1.67631 F5400
G1 X179.000 Y103.000 E0.20954 F5400
G1 X131.000 Y103.000 E1.67631 F5400
G1 X131.000 Y109.000 E0.20954 F5400
; CHANGE_LAYER
; Z_HEIGHT: 3.20
; LAYER_HEIGHT: 0.20
G1 Z3.200 F720
G1 E-0.80000 F2400
G1 X55.000 Y60.000 F9000
G1 E0.80000 F2400
; FEATURE: Outer wall
G1 X105.000 Y60.000 E1.74616 F5400
G1 X105.000 Y110.000 E1.74616 F5400
G1 X55.000 Y110.000 E1.74616 F5400
G1 X55.000 Y60.000 E1.74616 F5400
; FEATURE: Sparse infill
G1 X56.000 Y61.000 F9000
G1 X104.000 Y61.000 E1.67631 F5400
G1 X104.000 Y67.000 E0.20954 F5400
G1 X56.000 Y67.000 E1.67631 F5400
G1 X56.000 Y73.000 E0.20954 F5400
G1 X104.000 Y73.000 E1.67631 F5400
G1 X104.000 Y79.000 E0.20954 F5400
G1 X56.000 Y79.000 E1.67631 F5400
G1 X56.000 Y85.000 E0.20954 F5400
G1 X104.000 Y85.000 E1.67631 F5400
G1 X104.000 Y91.000 E0.20954 F5400
G1 X56.000 Y91.000 E1.67631 F5400
G1 X56.000 Y97.000 E0.20954 F5400
G1 X104.000 Y97.000 E1.67631 F5400
G1 X104.000 Y103.000 E0.20954 F5400
G1 X56.000 Y103.000 E1.67631 F5400
G1 X56.000 Y109.000 E0.20954 F5400
G1 E-0.80000 F2400
G1 X130.000 Y60.000 F9000
G1 E0.80000 F2400
; FEATURE: Outer wall
G1 X180.000 Y60.000 E1.74616 F5400
G1 X180.000 Y110.000 E1.74616 F5400
G1 X130.000 Y110.000 E1.74616 F5400
G1 X130.000 Y60.000 E1.74616 F5400
; FEATURE: Sparse infill
G1 X131.000 Y61.000 F9000
G1 X179.000 Y61.000 E1.67631 F5400
G1 X179.000 Y67.000 E0.20954 F5400
G1 X131.000 Y67.000 E1.67631 F5400
G1 X131.000 Y73.000 E0.20954 F5400
G1 X179.000 Y73.000 E1.67631 F5400
G1 X179.000 Y79.000 E0.20954 F5400
G1 X131.000 Y79.000 E1.67631 F5400
G1 X131.000 Y85.000 E0.20954 F5400
G1 X179.000 Y85.000 E1.67631 F5400
G1 X179.000 Y91.000 E0.20954 F5400
G1 X131.000 Y91.000 E1.67631 F5400
G1 X131.000 Y97.000 E0.20954 F5400
G1 X179.000 Y97.000 E1.67631 F5400
G1 X179.000 Y103.000 E0.20954 F5400
G1 X131.000 Y103.000 E1.67631 F5400
G1 X131.000 Y109.000 E0.20954 F5400
; CHANGE_LAYER
; Z_HEIGHT: 3.40
; LAYER_HEIGHT: 0.20
G1 Z3.400 F720
G1 E-0.80000 F2400
G1 X55.000 Y60.000 F9000
G1 E0.80000 F2400
; FEATURE: Outer wall
G1 X105.000 Y60.000 E1.74616 F5400
G1 X105.000 Y110.000 E1.74616 F5400
G1 X55.000 Y110.000 E1.74616 F5400
G1 X55.000 Y60.000 E1.74616 F5400
; FEATURE: Sparse infill
G1 X56.000 Y61.000 F9000
G1 X104.000 Y61.000 E1.67631 F5400
G1 X104.000 Y67.000 E0.20954 F5400
G1 X56.000 Y67.000 E1.67631 F5400
G1 X56.000 Y73.000 E0.20954 F5400
G1 X104.000 Y73.000 E1.67631 F5400
G1 X104.000 Y79.000 E0.20954 F5400
G1 X56.000 Y79.000 E1.67631 F5400
G1 X56.000 Y85.000 E0.20954 F5400
G1 X104.000 Y85.000 E1.67631 F5400
G1 X104.000 Y91.000 E0.20954 F5400
G1 X56.000 Y91.000 E1.67631 F5400
G1 X56.000 Y97.000 E0.20954 F5400
G1 X104.000 Y97.000 E1.67631 F5400
G1 X104.000 Y103.000 E0.20954 F5400
G1 X56.000 Y103.000 E1.67631 F5400
G1 X56.000 Y109.000 E0.20954 F5400
G1 E-0.80000 F2400
G1 X130.000 Y60.000 F9000
G1 E0.80000 F2400
; FEATURE: Outer wall
G1 X180.000 Y60.000 E1.74616 F5400
G1 X180.000 Y110.000 E1.74616 F5400
G1 X130.000 Y110.000 E1.74616 F5400
G1 X130.000 Y60.000 E1.74616 F5400
; FEATURE: Sparse infill
G1 X131.000 Y61.000 F9000
G1 X179.000 Y61.000 E1.67631 F5400
G1 X179.000 Y67.000 E0.20954 F5400
G1 X131.000 Y67.000 E1.67631 F5400
G1 X131.000 Y73.000 E0.20954 F5400
G1 X179.000 Y73.000 E1.67631 F5400
G1 X179.000 Y79.000 E0.20954 F5400
G1 X131.000 Y79.000 E1.67631 F5400
G1 X131.000 Y85.000 E0.20954 F5400
G1 X179.000 Y85.000 E1.67631 F5400
G1 X179.000 Y91.000 E0.20954 F5400
G1 X131.000 Y91.000 E1.67631 F5400
G1 X131.000 Y97.000 E0.20954 F5400
G1 X179.000 Y97.000 E1.67631 F5400
G1 X179.000 Y103.000 E0.20954 F5400
G1 X131.000 Y103.000 E1.67631 F5400
G1 X131.000 Y109.000 E0.20954 F5400
; CHANGE_LAYER
; Z_HEIGHT: 3.60
; LAYER_HEIGHT: 0.20
G1 Z3.600 F720
G1 E-0.80000 F2400
G1 X55.000 Y60.000 F9000
G1 E0.80000 F2400
; FEATURE: Outer wall
G1 X105.000 Y60.000 E1.74616 F5400
G1 X105.000 Y110.000 E1.74616 F5400
G1 X55.000 Y110.000 E1.74616 F5400
G1 X55.000 Y60.000 E1.74616 F5400
; FEATURE: Sparse infill
G1 X56.000 Y61.000 F9000
G1 X104.000 Y61.000 E1.67631 F5400
G1 X104.000 Y67.000 E0.20954 F5400
G1 X56.000 Y67.000 E1.67631 F5400
G1 X56.000 Y73.000 E0.20954 F5400
G1 X104.000 Y73.000 E1.67631 F5400
G1 X104.000 Y79.000 E0.20954 F5400
G1 X56.000 Y79.000 E1.67631 F5400
G1 X56.000 Y85.000 E0.20954 F5400
G1 X104.000 Y85.000 E1.67631 F5400
G1 X104.000 Y91.000 E0.20954 F5400
G1 X56.000 Y91.000 E1.67631 F5400
G1 X56.000 Y97.000 E0.20954 F5400
G1 X104.000 Y97.000 E1.67631 F5400
G1 X104.000 Y103.000 E0.20954 F5400
G1 X56.000 Y103.000 E1.67631 F5400
G1 X56.000 Y109.000 E0.20954 F5400
G1 E-0.80000 F2400
G1 X130.000 Y60.000 F9000
G1 E0.80000 F2400
; FEATURE: Outer wall
G1 X180.000 Y60.000 E1.74616 F5400
G1 X180.000 Y110.000 E1.74616 F5400
G1 X130.000 Y110.000 E1.74616 F5400
G1 X130.000 Y60.000 E1.74616 F5400
; FEATURE: Sparse infill
G1 X131.000 Y61.000 F9000
G1 X179.000 Y61.000 E1.67631 F5400
G1 X179.000 Y67.000 E0.20954 F5400
G1 X131.000 Y67.000 E1.67631 F5400
G1 X131.000 Y73.000 E0.20954 F5400
G1 X179.000 Y73.000 E1.67631 F5400
G1 X179.000 Y79.000 E0.20954 F5400
G1 X131.000 Y79.000 E1.67631 F5400
G1 X131.000 Y85.000 E0.20954 F5400
G1 X179.000 Y85.000 E1.67631 F5400
G1 X179.000 Y91.000 E0.20954 F5400
G1 X131.000 Y91.000 E1.67631 F5400
G1 X131.000 Y97.000 E0.20954 F5400
G1 X179.000 Y97.000 E1.67631 F5400
G1 X179.000 Y103.000 E0.20954 F5400
G1 X131.000 Y103.000 E1.67631 F5400
G1 X131.000 Y109.000 E0.20954 F5400
; CHANGE_LAYER
; Z_HEIGHT: 3.80
; LAYER_HEIGHT: 0.20
G1 Z3.800 F720
G1 E-0.80000 F2400
G1 X55.000 Y60.000 F9000
G1 E0.80000 F2400
; FEATURE: Outer wall
G1 X105.000 Y60.000 E1.74616 F5400
G1 X105.000 Y110.000 E1.74616 F5400
G1 X55.000 Y110.000 E1.74616 F5400
G1 X55.000 Y60.000 E1.74616 F5400
; FEATURE: Sparse infill
G1 X56.000 Y61.000 F9000
G1 X104.000 Y61.000 E1.67631 F5400
G1 X104.000 Y67.000 E0.20954 F5400
G1 X56.000 Y67.000 E1.67631 F5400
G1 X56.000 Y73.000 E0.20954 F5400
G1 X104.000 Y73.000 E1.67631 F5400
G1 X104.000 Y79.000 E0.20954 F5400
G1 X56.000 Y79.000 E1.67631 F5400
G1 X56.000 Y85.000 E0.20954 F5400
G1 X104.000 Y85.000 E1.67631 F5400
G1 X104.000 Y91.000 E0.20954 F5400
G1 X56.000 Y91.000 E1.67631 F5400
G1 X56.000 Y97.000 E0.20954 F5400
G1 X104.000 Y97.000 E1.67631 F5400
G1 X104.000 Y103.000 E0.20954 F5400
G1 X56.000 Y103.000 E1.67631 F5400
G1 X56.000 Y109.000 E0.20954 F5400
G1 E-0.80000 F2400
G1 X130.000 Y60.000 F9000
G1 E0.80000 F2400
; FEATURE: Outer wall
G1 X180.000 Y60.000 E1.74616 F5400
G1 X180.000 Y110.000 E1.74616 F5400
G1 X130.000 Y110.000 E1.74616 F5400
G1 X130.000 Y60.000 E1.74616 F5400
; FEATURE: Sparse infill
G1 X131.000 Y61.000 F9000
G1 X179.000 Y61.000 E1.67631 F5400
G1 X179.000 Y67.000 E0.20954 F5400
G1 X131.000 Y67.000 E1.67631 F5400
G1 X131.000 Y73.000 E0.20954 F5400
G1 X179.000 Y73.000 E1.67631 F5400
G1 X179.000 Y79.000 E0.20954 F5400
G1 X131.000 Y79.000 E1.67631 F5400
G1 X131.000 Y85.000 E0.20954 F5400
G1 X179.000 Y85.000 E1.67631 F5400
G1 X179.000 Y91.000 E0.20954 F5400
G1 X131.000 Y91.000 E1.67631 F5400
G1 X131.000 Y97.000 E0.20954 F5400
G1 X179.000 Y97.000 E1.67631 F5400
G1 X179.000 Y103.000 E0.20954 F5400
G1 X131.000 Y103.000 E1.67631 F5400
G1 X131.000 Y109.000 E0.20954 F5400
; CHANGE_LAYER
; Z_HEIGHT: 4.00
; LAYER_HEIGHT: 0.20
G1 Z4.000 F720
G1 E-0.80000 F2400
G1 X55.000 Y60.000 F9000
G1 E0.80000 F2400
; FEATURE: Outer wall
G1 X105.000 Y60.000 E1.74616 F5400
G1 X105.000 Y110.000 E1.74616 F5400
G1 X55.000 Y110.000 E1.74616 F5400
G1 X55.000 Y60.000 E1.74616 F5400
; FEATURE: Sparse infill
G1 X56.000 Y61.000 F9000
G1 X104.000 Y61.000 E1.67631 F5400
G1 X104.000 Y67.000 E0.20954 F5400
G1 X56.000 Y67.000 E1.67631 F5400
G1 X56.000 Y73.000 E0.20954 F5400
G1 X104.000 Y73.000 E1.67631 F5400
G1 X104.000 Y79.000 E0.20954 F5400
G1 X56.000 Y79.000 E1.67631 F5400
G1 X56.000 Y85.000 E0.20954 F5400
G1 X104.000 Y85.000 E1.67631 F5400
G1 X104.000 Y91.000 E0.20954 F5400
G1 X56.000 Y91.000 E1.67631 F5400
G1 X56.000 Y97.000 E0.20954 F5400
G1 X104.000 Y97.000 E1.67631 F5400
G1 X104.000 Y103.000 E0.20954 F5400
G1 X56.000 Y103.000 E1.67631 F5400
G1 X56.000 Y109.000 E0.20954 F5400
G1 E-0.80000 F2400
G1 X130.000 Y60.000 F9000
G1 E0.80000 F2400
; FEATURE: Outer wall
G1 X180.000 Y60.000 E1.74616 F5400
G1 X180.000 Y110.000 E1.74616 F5400
G1 X130.000 Y110.000 E1.74616 F5400
G1 X130.000 Y60.000 E1.74616 F5400
; FEATURE: Sparse infill
G1 X131.000 Y61.000 F9000
G1 X179.000 Y61.000 E1.67631 F5400
G1 X179.000 Y67.000 E0.20954 F5400
G1 X131.000 Y67.000 E1.67631 F5400
G1 X131.000 Y73.000 E0.20954 F5400
G1 X179.000 Y73.000 E1.67631 F5400
G1 X179.000 Y79.000 E0.20954 F5400
G1 X131.000 Y79.000 E1.67631 F5400
G1 X131.000 Y85.000 E0.20954 F5400
G1 X179.000 Y85.000 E1.67631 F5400
G1 X179.000 Y91.000 E0.20954 F5400
G1 X131.000 Y91.000 E1.67631 F5400
G1 X131.000 Y97.000 E0.20954 F5400
G1 X179.000 Y97.000 E1.67631 F5400
G1 X179.000 Y103.000 E0.20954 F5400
G1 X131.000 Y103.000 E1.67631 F5400
G1 X131.000 Y109.000 E0.20954 F5400
; CHANGE_LAYER
; Z_HEIGHT: 4.20
; LAYER_HEIGHT: 0.20
G1 Z4.200 F720
G1 E-0.80000 F2400
G1 X55.000 Y60.000 F9000
G1 E0.80000 F2400
; FEATURE: Outer wall
G1 X105.000 Y60.000 E1.74616 F5400
G1 X105.000 Y110.000 E1.74616 F5400
G1 X55.000 Y110.000 E1.74616 F5400
G1 X55.000 Y60.000 E1.74616 F5400
; FEATURE: Sparse infill
G1 X56.000 Y61.000 F9000
G1 X104.000 Y61.000 E1.67631 F5400
G1 X104.000 Y67.000 E0.20954 F5400
G1 X56.000 Y67.000 E1.67631 F5400
G1 X56.000 Y73.000 E0.20954 F5400
G1 X104.000 Y73.000 E1.67631 F5400
G1 X104.000 Y79.000 E0.20954 F5400
G1 X56.000 Y79.000 E1.67631 F5400
G1 X56.000 Y85.000 E0.20954 F5400
G1 X104.000 Y85.000 E1.67631 F5400
G1 X104.000 Y91.000 E0.20954 F5400
G1 X56.000 Y91.000 E1.67631 F5400
G1 X56.000 Y97.000 E0.20954 F5400
G1 X104.000 Y97.000 E1.67631 F5400
G1 X104.000 Y103.000 E0.20954 F5400
G1 X56.000 Y103.000 E1.67631 F5400
G1 X56.000 Y109.000 E0.20954 F5400
G1 E-0.80000 F2400
G1 X130.000 Y60.000 F9000
G1 E0.80000 F2400
; FEATURE: Outer wall
G1 X180.000 Y60.000 E1.74616 F5400
G1 X180.000 Y110.000 E1.74616 F5400
G1 X130.000 Y110.000 E1.74616 F5400
G1 X130.000 Y60.000 E1.74616 F5400
; FEATURE: Sparse infill
G1 X131.000 Y61.000 F9000
G1 X179.000 Y61.000 E1.67631 F5400
G1 X179.000 Y67.000 E0.20954 F5400
G1 X131.000 Y67.000 E1.67631 F5400
G1 X131.000 Y73.000 E0.20954 F5400
G1 X179.000 Y73.000 E1.67631 F5400
G1 X179.000 Y79.000 E0.20954 F5400
G1 X131.000 Y79.000 E1.67631 F5400
G1 X131.000 Y85.000 E0.20954 F5400
G1 X179.000 Y85.000 E1.67631 F5400
G1 X179.000 Y91.000 E0.20954 F5400
G1 X131.000 Y91.000 E1.67631 F5400
G1 X131.000 Y97.000 E0.20954 F5400
G1 X179.000 Y97.000 E1.67631 F5400
G1 X179.000 Y103.000 E0.20954 F5400
G1 X131.000 Y103.000 E1.67631 F5400
G1 X131.000 Y109.000 E0.20954 F5400
; CHANGE_LAYER
; Z_HEIGHT: 4.40
; LAYER_HEIGHT: 0.20
G1 Z4.400 F720
G1 E-0.80000 F2400
G1 X55.000 Y60.000 F9000
G1 E0.80000 F2400
; FEATURE: Outer wall
G1 X105.000 Y60.000 E1.74616 F5400
G1 X105.000 Y110.000 E1.74616 F5400
G1 X55.000 Y110.000 E1.74616 F5400
G1 X55.000 Y60.000 E1.74616 F5400
; FEATURE: Sparse infill
G1 X56.000 Y61.000 F9000
G1 X104.000 Y61.000 E1.67631 F5400
G1 X104.000 Y67.000 E0.20954 F5400
G1 X56.000 Y67.000 E1.67631 F5400
G1 X56.000 Y73.000 E0.20954 F5400
G1 X104.000 Y73.000 E1.67631 F5400
G1 X104.000 Y79.000 E0.20954 F5400
G1 X56.000 Y79.000 E1.67631 F5400
G1 X56.000 Y85.000 E0.20954 F5400
G1 X104.000 Y85.000 E1.67631 F5400
G1 X104.000 Y91.000 E0.20954 F5400
G1 X56.000 Y91.000 E1.67631 F5400
G1 X56.000 Y97.000 E0.20954 F5400
G1 X104.000 Y97.000 E1.67631 F5400
G1 X104.000 Y103.000 E0.20954 F5400
G1 X56.000 Y103.000 E1.67631 F5400
G1 X56.000 Y109.000 E0.20954 F5400
G1 E-0.80000 F2400
G1 X130.000 Y60.000 F9000
G1 E0.80000 F2400
; FEATURE: Outer wall
G1 X180.000 Y60.000 E1.74616 F5400
G1 X180.000 Y110.000 E1.74616 F5400
G1 X130.000 Y110.000 E1.74616 F5400
G1 X130.000 Y60.000 E1.74616 F5400
; FEATURE: Sparse infill
G1 X131.000 Y61.000 F9000
G1 X179.000 Y61.000 E1.67631 F5400
G1 X179.000 Y67.000 E0.20954 F5400
G1 X131.000 Y67.000 E1.67631 F5400
G1 X131.000 Y73.000 E0.20954 F5400
G1 X179.000 Y73.000 E1.67631 F5400
G1 X179.000 Y79.000 E0.20954 F5400
G1 X131.000 Y79.000 E1.67631 F5400
G1 X131.000 Y85.000 E0.20954 F5400
G1 X179.000 Y85.000 E1.67631 F5400
G1 X179.000 Y91.000 E0.20954 F5400
G1 X131.000 Y91.000 E1.67631 F5400
G1 X131.000 Y97.000 E0.20954 F5400
G1 X179.000 Y97.000 E1.67631 F5400
G1 X179.000 Y103.000 E0.20954 F5400
G1 X131.000 Y103.000 E1.67631 F5400
G1 X131.000 Y109.000 E0.20954 F5400
; CHANGE_LAYER
; Z_HEIGHT: 4.60
; LAYER_HEIGHT: 0.20
G1 Z4.600 F720
G1 E-0.80000 F2400
G1 X55.000 Y60.000 F9000
G1 E0.80000 F2400
; FEATURE: Outer wall
G1 X105.000 Y60.000 E1.74616 F5400
G1 X105.000 Y110.000 E1.74616 F5400
G1 X55.000 Y110.000 E1.74616 F5400
G1 X55.000 Y60.000 E1.74616 F5400
; FEATURE: Sparse infill
G1 X56.000 Y61.000 F9000
G1 X104.000 Y61.000 E1.67631 F5400
G1 X104.000 Y67.000 E0.20954 F5400
G1 X56.000 Y67.000 E1.67631 F5400
G1 X56.000 Y73.000 E0.20954 F5400
G1 X104.000 Y73.000 E1.67631 F5400
G1 X104.000 Y79.000 E0.20954 F5400
G1 X56.000 Y79.000 E1.67631 F5400
G1 X56.000 Y85.000 E0.20954 F5400
G1 X104.000 Y85.000 E1.67631 F5400
G1 X104.000 Y91.000 E0.20954 F5400
G1 X56.000 Y91.000 E1.67631 F5400
G1 X56.000 Y97.000 E0.20954 F5400
G1 X104.000 Y97.000 E1.67631 F5400
G1 X104.000 Y103.000 E0.20954 F5400
G1 X56.000 Y103.000 E1.67631 F5400
G1 X56.000 Y109.000 E0.20954 F5400
G1 E-0.80000 F2400
G1 X130.000 Y60.000 F9000
G1 E0.80000 F2400
; FEATURE: Outer wall
G1 X180.000 Y60.000 E1.74616 F5400
G1 X180.000 Y110.000 E1.74616 F5400
G1 X130.000 Y110.000 E1.74616 F5400
G1 X130.000 Y60.000 E1.74616 F5400
; FEATURE: Sparse infill
G1 X131.000 Y61.000 F9000
G1 X179.000 Y61.000 E1.67631 F5400
G1 X179.000 Y67.000 E0.20954 F5400
G1 X131.000 Y67.000 E1.67631 F5400
G1 X131.000 Y73.000 E0.20954 F5400
G1 X179.000 Y73.000 E1.67631 F5400
G1 X179.000 Y79.000 E0.20954 F5400
G1 X131.000 Y79.000 E1.67631 F5400
G1 X131.000 Y85.000 E0.20954 F5400
G1 X179.000 Y85.000 E1.67631 F5400
G1 X179.000 Y91.000 E0.20954 F5400
G1 X131.000 Y91.000 E1.67631 F5400
G1 X131.000 Y97.000 E0.20954 F5400
G1 X179.000 Y97.000 E1.67631 F5400
G1 X179.000 Y103.000 E0.20954 F5400
G1 X131.000 Y103.000 E1.67631 F5400
G1 X131.000 Y109.000 E0.20954 F5400
; CHANGE_LAYER
; Z_HEIGHT: 4.80
; LAYER_HEIGHT: 0.20
G1 Z4.800 F720
G1 E-0.80000 F2400
G1 X55.000 Y60.000 F9000
G1 E0.80000 F2400
; FEATURE: Outer wall
G1 X105.000 Y60.000 E1.74616 F5400
G1 X105.000 Y110.000 E1.74616 F5400
G1 X55.000 Y110.000 E1.74616 F5400
G1 X55.000 Y60.000 E1.74616 F5400
; FEATURE: Sparse infill
G1 X56.000 Y61.000 F9000
G1 X104.000 Y61.000 E1.67631 F5400
G1 X104.000 Y67.000 E0.20954 F5400
G1 X56.000 Y67.000 E1.67631 F5400
G1 X56.000 Y73.000 E0.20954 F5400
G1 X104.000 Y73.000 E1.67631 F5400
G1 X104.000 Y79.000 E0.20954 F5400
G1 X56.000 Y79.000 E1.67631 F5400
G1 X56.000 Y85.000 E0.20954 F5400
G1 X104.000 Y85.000 E1.67631 F5400
G1 X104.000 Y91.000 E0.20954 F5400
G1 X56.000 Y91.000 E1.67631 F5400
G1 X56.000 Y97.000 E0.20954 F5400
G1 X104.000 Y97.000 E1.67631 F5400
G1 X104.000 Y103.000 E0.20954 F5400
G1 X56.000 Y103.000 E1.67631 F5400
G1 X56.000 Y109.000 E0.20954 F5400
G1 E-0.80000 F2400
G1 X130.000 Y60.000 F9000
G1 E0.80000 F2400
; FEATURE: Outer wall
G1 X180.000 Y60.000 E1.74616 F5400
G1 X180.000 Y110.000 E1.74616 F5400
G1 X130.000 Y110.000 E1.74616 F5400
G1 X130.000 Y60.000 E1.74616 F5400
; FEATURE: Sparse infill
G1 X131.000 Y61.000 F9000
G1 X179.000 Y61.000 E1.67631 F5400
G1 X179.000 Y67.000 E0.20954 F5400
G1 X131.000 Y67.000 E1.67631 F5400
G1 X131.000 Y73.000 E0.20954 F5400
G1 X179.000 Y73.000 E1.67631 F5400
G1 X179.000 Y79.000 E0.20954 F5400
G1 X131.000 Y79.000 E1.67631 F5400
G1 X131.000 Y85.000 E0.20954 F5400
G1 X179.000 Y85.000 E1.67631 F5400
G1 X179.000 Y91.000 E0.20954 F5400
G1 X131.000 Y91.000 E1.67631 F5400
G1 X131.000 Y97.000 E0.20954 F5400
G1 X179.000 Y97.000 E1.67631 F5400
G1 X179.000 Y103.000 E0.20954 F5400
G1 X131.000 Y103.000 E1.67631 F5400
G1 X131.000 Y109.000 E0.20954 F5400
; CHANGE_LAYER
; Z_HEIGHT: 5.00
; LAYER_HEIGHT: 0.20
G1 Z5.000 F720
G1 E-0.80000 F2400
G1 X55.000 Y60.000 F9000
G1 E0.80000 F2400
; FEATURE: Outer wall
G1 X105.000 Y60.000 E1.74616 F5400
G1 X105.000 Y110.000 E1.74616 F5400
G1 X55.000 Y110.000 E1.74616 F5400
G1 X55.000 Y60.000 E1.74616 F5400
; FEATURE: Sparse infill
G1 X56.000 Y61.000 F9000
G1 X104.000 Y61.000 E1.67631 F5400
G1 X104.000 Y67.000 E0.20954 F5400
G1 X56.000 Y67.000 E1.67631 F5400
G1 X56.000 Y73.000 E0.20954 F5400
G1 X104.000 Y73.000 E1.67631 F5400
G1 X104.000 Y79.000 E0.20954 F5400
G1 X56.000 Y79.000 E1.67631 F5400
G1 X56.000 Y85.000 E0.20954 F5400
G1 X104.000 Y85.000 E1.67631 F5400
G1 X104.000 Y91.000 E0.20954 F5400
G1 X56.000 Y91.000 E1.67631 F5400
G1 X56.000 Y97.000 E0.20954 F5400
G1 X104.000 Y97.000 E1.67631 F5400
G1 X104.000 Y103.000 E0.20954 F5400
G1 X56.000 Y103.000 E1.67631 F5400
G1 X56.000 Y109.000 E0.20954 F5400
G1 E-0.80000 F2400
G1 X130.000 Y60.000 F9000
G1 E0.80000 F2400
; FEATURE: Outer wall
G1 X180.000 Y60.000 E1.74616 F5400
G1 X180.000 Y110.000 E1.74616 F5400
G1 X130.000 Y110.000 E1.74616 F5400
G1 X130.000 Y60.000 E1.74616 F5400
; FEATURE: Sparse infill
G1 X131.000 Y61.000 F9000
G1 X179.000 Y61.000 E1.67631 F5400
G1 X179.000 Y67.000 E0.20954 F5400
G1 X131.000 Y67.000 E1.67631 F5400
G1 X131.000 Y73.000 E0.20954 F5400
G1 X179.000 Y73.000 E1.67631 F5400
G1 X179.000 Y79.000 E0.20954 F5400
G1 X131.000 Y79.000 E1.67631 F5400
G1 X131.000 Y85.000 E0.20954 F5400
G1 X179.000 Y85.000 E1.67631 F5400
G1 X179.000 Y91.000 E0.20954 F5400
G1 X131.000 Y91.000 E1.67631 F5400
G1 X131.000 Y97.000 E0.20954 F5400
G1 X179.000 Y97.000 E1.67631 F5400
G1 X179.000 Y103.000 E0.20954 F5400
G1 X131.000 Y103.000 E1.67631 F5400
G1 X131.000 Y109.000 E0.20954 F5400
; CHANGE_LAYER
; Z_HEIGHT: 5.20
; LAYER_HEIGHT: 0.20
G1 Z5.200 F720
G1 E-0.80000 F2400
G1 X55.000 Y60.000 F9000
G1 E0.80000 F2400
; FEATURE: Outer wall
G1 X105.000 Y60.000 E1.74616 F5400
G1 X105.000 Y110.000 E1.74616 F5400
G1 X55.000 Y110.000 E1.74616 F5400
G1 X55.000 Y60.000 E1.74616 F5400
; FEATURE: Sparse infill
G1 X56.000 Y61.000 F9000
G1 X104.000 Y61.000 E1.67631 F5400
G1 X104.000 Y67.000 E0.20954 F5400
G1 X56.000 Y67.000 E1.67631 F5400
G1 X56.000 Y73.000 E0.20954 F5400
G1 X104.000 Y73.000 E1.67631 F5400
G1 X104.000 Y79.000 E0.20954 F5400
G1 X56.000 Y79.000 E1.67631 F5400
G1 X56.000 Y85.000 E0.20954 F5400
G1 X104.000 Y85.000 E1.67631 F5400
G1 X104.000 Y91.000 E0.20954 F5400
G1 X56.000 Y91.000 E1.67631 F5400
G1 X56.000 Y97.000 E0.20954 F5400
G1 X104.000 Y97.000 E1.67631 F5400
G1 X104.000 Y103.000 E0.20954 F5400
G1 X56.000 Y103.000 E1.67631 F5400
G1 X56.000 Y109.000 E0.20954 F5400
G1 E-0.80000 F2400
G1 X130.000 Y60.000 F9000
G1 E0.80000 F2400
; FEATURE: Outer wall
G1 X180.000 Y60.000 E1.74616 F5400
G1 X180.000 Y110.000 E1.74616 F5400
G1 X130.000 Y110.000 E1.74616 F5400
G1 X130.000 Y60.000 E1.74616 F5400
; FEATURE: Sparse infill
G1 X131.000 Y61.000 F9000
G1 X179.000 Y61.000 E1.67631 F5400
G1 X179.000 Y67.000 E0.20954 F5400
G1 X131.000 Y67.000 E1.67631 F5400
G1 X131.000 Y73.000 E0.20954 F5400
G1 X179.000 Y73.000 E1.67631 F5400
G1 X179.000 Y79.000 E0.20954 F5400
G1 X131.000 Y79.000 E1.67631 F5400
G1 X131.000 Y85.000 E0.20954 F5400
G1 X179.000 Y85.000 E1.67631 F5400
G1 X179.000 Y91.000 E0.20954 F5400
G1 X131.000 Y91.000 E1.67631 F5400
G1 X131.000 Y97.000 E0.20954 F5400
G1 X179.000 Y97.000 E1.67631 F5400
G1 X179.000 Y103.000 E0.20954 F5400
G1 X131.000 Y103.000 E1.67631 F5400
G1 X131.000 Y109.000 E0.20954 F5400
; CHANGE_LAYER
; Z_HEIGHT: 5.40
; LAYER_HEIGHT: 0.20
G1 Z5.400 F720
G1 E-0.80000 F2400
G1 X55.000 Y60.000 F9000
G1 E0.80000 F2400
; FEATURE: Outer wall
G1 X105.000 Y60.000 E1.74616 F5400
G1 X105.000 Y110.000 E1.74616 F5400
G1 X55.000 Y110.000 E1.74616 F5400
G1 X55.000 Y60.000 E1.74616 F5400
; FEATURE: Sparse infill
G1 X56.000 Y61.000 F9000
G1 X104.000 Y61.000 E1.67631 F5400
G1 X104.000 Y67.000 E0.20954 F5400
G1 X56.000 Y67.000 E1.67631 F5400
G1 X56.000 Y73.000 E0.20954 F5400
G1 X104.000 Y73.000 E1.67631 F5400
G1 X104.000 Y79.000 E0.20954 F5400
G1 X56.000 Y79.000 E1.67631 F5400
G1 X56.000 Y85.000 E0.20954 F5400
G1 X104.000 Y85.000 E1.67631 F5400
G1 X104.000 Y91.000 E0.20954 F5400
G1 X56.000 Y91.000 E1.67631 F5400
G1 X56.000 Y97.000 E0.20954 F5400
G1 X104.000 Y97.000 E1.67631 F5400
G1 X104.000 Y103.000 E0.20954 F5400
G1 X56.000 Y103.000 E1.67631 F5400
G1 X56.000 Y109.000 E0.20954 F5400
G1 E-0.80000 F2400
G1 X130.000 Y60.000 F9000
G1 E0.80000 F2400
; FEATURE: Outer wall
G1 X180.000 Y60.000 E1.74616 F5400
G1 X180.000 Y110.000 E1.74616 F5400
G1 X130.000 Y110.000 E1.74616 F5400
G1 X130.000 Y60.000 E1.74616 F5400
; FEATURE: Sparse infill
G1 X131.000 Y61.000 F9000
G1 X179.000 Y61.000 E1.67631 F5400
G1 X179.000 Y67.000 E0.20954 F5400
G1 X131.000 Y67.000 E1.67631 F5400
G1 X131.000 Y73.000 E0.20954 F5400
G1 X179.000 Y73.000 E1.67631 F5400
G1 X179.000 Y79.000 E0.20954 F5400
G1 X131.000 Y79.000 E1.67631 F5400
G1 X131.000 Y85.000 E0.20954 F5400
G1 X179.000 Y85.000 E1.67631 F5400
G1 X179.000 Y91.000 E0.20954 F5400
G1 X131.000 Y91.000 E1.67631 F5400
G1 X131.000 Y97.000 E0.20954 F5400
G1 X179.000 Y97.000 E1.67631 F5400
G1 X179.000 Y103.000 E0.20954 F5400
G1 X131.000 Y103.000 E1.67631 F5400
G1 X131.000 Y109.000 E0.20954 F5400
; CHANGE_LAYER
; Z_HEIGHT: 5.60
; LAYER_HEIGHT: 0.20
G1 Z5.600 F720
G1 E-0.80000 F2400
G1 X55.000 Y60.000 F9000
G1 E0.80000 F2400
; FEATURE: Outer wall
G1 X105.000 Y60.000 E1.74616 F5400
G1 X105.000 Y110.000 E1.74616 F5400
G1 X55.000 Y110.000 E1.74616 F5400
G1 X55.000 Y60.000 E1.74616 F5400
; FEATURE: Sparse infill
G1 X56.000 Y61.000 F9000
G1 X104.000 Y61.000 E1.67631 F5400
G1 X104.000 Y67.000 E0.20954 F5400
G1 X56.000 Y67.000 E1.67631 F5400
G1 X56.000 Y73.000 E0.20954 F5400
G1 X104.000 Y73.000 E1.67631 F5400
G1 X104.000 Y79.000 E0.20954 F5400
G1 X56.000 Y79.000 E1.67631 F5400
G1 X56.000 Y85.000 E0.20954 F5400
G1 X104.000 Y85.000 E1.67631 F5400
G1 X104.000 Y91.000 E0.20954 F5400
G1 X56.000 Y91.000 E1.67631 F5400
G1 X56.000 Y97.000 E0.20954 F5400
G1 X104.000 Y97.000 E1.67631 F5400
G1 X104.000 Y103.000 E0.20954 F5400
G1 X56.000 Y103.000 E1.67631 F5400
G1 X56.000 Y109.000 E0.20954 F5400
G1 E-0.80000 F2400
G1 X130.000 Y60.000 F9000
G1 E0.80000 F2400
; FEATURE: Outer wall
G1 X180.000 Y60.000 E1.74616 F5400
G1 X180.000 Y110.000 E1.74616 F5400
G1 X130.000 Y110.000 E1.74616 F5400
G1 X130.000 Y60.000 E1.74616 F5400
; FEATURE: Sparse infill
G1 X131.000 Y61.000 F9000
G1 X179.000 Y61.000 E1.67631 F5400
G1 X179.000 Y67.000 E0.20954 F5400
G1 X131.000 Y67.000 E1.67631 F5400
G1 X131.000 Y73.000 E0.20954 F5400
G1 X179.000 Y73.000 E1.67631 F5400
G1 X179.000 Y79.000 E0.20954 F5400
G1 X131.000 Y79.000 E1.67631 F5400
G1 X131.000 Y85.000 E0.20954 F5400
G1 X179.000 Y85.000 E1.67631 F5400
G1 X179.000 Y91.000 E0.20954 F5400
G1 X131.000 Y91.000 E1.67631 F5400
G1 X131.000 Y97.000 E0.20954 F5400
G1 X179.000 Y97.000 E1.67631 F5400
G1 X179.000 Y103.000 E0.20954 F5400
G1 X131.000 Y103.000 E1.67631 F5400
G1 X131.000 Y109.000 E0.20954 F5400
; CHANGE_LAYER
; Z_HEIGHT: 5.80
; LAYER_HEIGHT: 0.20
G1 Z5.800 F720
G1 E-0.80000 F2400
G1 X55.000 Y60.000 F9000
G1 E0.80000 F2400
; FEATURE: Outer wall
G1 X105.000 Y60.000 E1.74616 F5400
G1 X105.000 Y110.000 E1.74616 F5400
G1 X55.000 Y110.000 E1.74616 F5400
G1 X55.000 Y60.000 E1.74616 F5400
; FEATURE: Sparse infill
G1 X56.000 Y61.000 F9000
G1 X104.000 Y61.000 E1.67631 F5400
G1 X104.000 Y67.000 E0.20954 F5400
G1 X56.000 Y67.000 E1.67631 F5400
G1 X56.000 Y73.000 E0.20954 F5400
G1 X104.000 Y73.000 E1.67631 F5400
G1 X104.000 Y79.000 E0.20954 F5400
G1 X56.000 Y79.000 E1.67631 F5400
G1 X56.000 Y85.000 E0.20954 F5400
G1 X104.000 Y85.000 E1.67631 F5400
G1 X104.000 Y91.000 E0.20954 F5400
G1 X56.000 Y91.000 E1.67631 F5400
G1 X56.000 Y97.000 E0.20954 F5400
G1 X104.000 Y97.000 E1.67631 F5400
G1 X104.000 Y103.000 E0.20954 F5400
G1 X56.000 Y103.000 E1.67631 F5400
G1 X56.000 Y109.000 E0.20954 F5400
G1 E-0.80000 F2400
G1 X130.000 Y60.000 F9000
G1 E0.80000 F2400
; FEATURE: Outer wall
G1 X180.000 Y60.000 E1.74616 F5400
G1 X180.000 Y110.000 E1.74616 F5400
G1 X130.000 Y110.000 E1.74616 F5400
G1 X130.000 Y60.000 E1.74616 F5400
; FEATURE: Sparse infill
G1 X131.000 Y61.000 F9000
G1 X179.000 Y61.000 E1.67631 F5400
G1 X179.000 Y67.000 E0.20954 F5400
G1 X131.000 Y67.000 E1.67631 F5400
G1 X131.000 Y73.000 E0.20954 F5400
G1 X179.000 Y73.000 E1.67631 F5400
G1 X179.000 Y79.000 E0.20954 F5400
G1 X131.000 Y79.000 E1.67631 F5400
G1 X131.000 Y85.000 E0.20954 F5400
G1 X179.000 Y85.000 E1.67631 F5400
G1 X179.000 Y91.000 E0.20954 F5400
G1 X131.000 Y91.000 E1.67631 F5400
G1 X131.000 Y97.000 E0.20954 F5400
G1 X179.000 Y97.000 E1.67631 F5400
G1 X179.000 Y103.000 E0.20954 F5400
G1 X131.000 Y103.000 E1.67631 F5400
G1 X131.000 Y109.000 E0.20954 F5400
; CHANGE_LAYER
; Z_HEIGHT: 6.00
; LAYER_HEIGHT: 0.20
G1 Z6.000 F720
G1 E-0.80000 F2400
G1 X55.000 Y60.000 F9000
G1 E0.80000 F2400
; FEATURE: Outer wall
G1 X105.000 Y60.000 E1.74616 F5400
G1 X105.000 Y110.000 E1.74616 F5400
G1 X55.000 Y110.000 E1.74616 F5400
G1 X55.000 Y60.000 E1.74616 F5400
; FEATURE: Sparse infill
G1 X56.000 Y61.000 F9000
G1 X104.000 Y61.000 E1.67631 F5400
G1 X104.000 Y67.000 E0.20954 F5400
G1 X56.000 Y67.000 E1.67631 F5400
G1 X56.000 Y73.000 E0.20954 F5400
G1 X104.000 Y73.000 E1.67631 F5400
G1 X104.000 Y79.000 E0.20954 F5400
G1 X56.000 Y79.000 E1.67631 F5400
G1 X56.000 Y85.000 E0.20954 F5400
G1 X104.000 Y85.000 E1.67631 F5400
G1 X104.000 Y91.000 E0.20954 F5400
G1 X56.000 Y91.000 E1.67631 F5400
G1 X56.000 Y97.000 E0.20954 F5400
G1 X104.000 Y97.000 E1.67631 F5400
G1 X104.000 Y103.000 E0.20954 F5400
G1 X56.000 Y103.000 E1.67631 F5400
G1 X56.000 Y109.000 E0.20954 F5400
G1 E-0.80000 F2400
G1 X130.000 Y60.000 F9000
G1 E0.80000 F2400
; FEATURE: Outer wall
G1 X180.000 Y60.000 E1.74616 F5400
G1 X180.000 Y110.000 E1.74616 F5400
G1 X130.000 Y110.000 E1.74616 F5400
G1 X130.000 Y60.000 E1.74616 F5400
; FEATURE: Sparse infill
G1 X131.000 Y61.000 F9000
G1 X179.000 Y61.000 E1.67631 F5400
G1 X179.000 Y67.000 E0.20954 F5400
G1 X131.000 Y67.000 E1.67631 F5400
G1 X131.000 Y73.000 E0.20954 F5400
G1 X179.000 Y73.000 E1.67631 F5400
G1 X179.000 Y79.000 E0.20954 F5400
G1 X131.000 Y79.000 E1.67631 F5400
G1 X131.000 Y85.000 E0.20954 F5400
G1 X179.000 Y85.000 E1.67631 F5400
G1 X179.000 Y91.000 E0.20954 F5400
G1 X131.000 Y91.000 E1.67631 F5400
G1 X131.000 Y97.000 E0.20954 F5400
G1 X179.000 Y97.000 E1.67631 F5400
G1 X179.000 Y103.000 E0.20954 F5400
G1 X131.000 Y103.000 E1.67631 F5400
G1 X131.000 Y109.000 E0.20954 F5400
G1 E-2.00000 F2400
M104 S0
M140 S0
M107
G1 Z16.000 F9000
G1 X0.000 Y200.000 F3000
M84 ; steppers off
; EXECUTABLE_BLOCK_END
